{
  "type": "FeatureCollection",
  "metadata": {
    "tripName": "E2E Test Trip",
    "attributeRanges": {
      "elevation": { "min": 10, "max": 50, "unit": "m" },
      "speed": { "min": 10, "max": 60, "unit": "km/h" }
    },
    "stats": {
      "trackCount": 2,
      "waypointCount": 1,
      "dayCount": 2,
      "transportModes": { "drive": 1, "walk": 1 },
      "dateRange": { "start": "2024-01-01", "end": "2024-01-02" }
    }
  },
  "features": [
    {
      "type": "Feature",
      "geometry": {
        "type": "LineString",
        "coordinates": [
          [139.6917, 35.6895],
          [139.7000, 35.6950],
          [139.7100, 35.7000]
        ]
      },
      "properties": {
        "type": "track",
        "name": "Tokyo Drive",
        "day": "2024-01-01",
        "transportMode": "drive",
        "defaultVisible": true,
        "group": null,
        "elevations": [10, 30, 50],
        "speeds": [30, 45, 60],
        "sunAngles": [180, 180, 180]
      }
    },
    {
      "type": "Feature",
      "geometry": {
        "type": "LineString",
        "coordinates": [
          [151.2093, -33.8688],
          [151.2200, -33.8600],
          [151.2300, -33.8500]
        ]
      },
      "properties": {
        "type": "track",
        "name": "Sydney Walk",
        "day": "2024-01-02",
        "transportMode": "walk",
        "defaultVisible": false,
        "group": "hidden-group",
        "elevations": [20, 25, 30],
        "speeds": [10, 12, 11],
        "sunAngles": [200, 205, 210]
      }
    },
    {
      "type": "Feature",
      "geometry": {
        "type": "Point",
        "coordinates": [139.6950, 35.6910]
      },
      "properties": {
        "type": "poi",
        "name": "Test Hotel",
        "category": "accommodation"
      }
    }
  ]
}
