{"type": "FeatureCollection", "features": [{"type": "Feature", "geometry": {"type": "LineString", "coordinates": [[174.792, -36.999, 30.8], [174.642138, -37.207902, 1369.5], [174.492276, -37.416804, 2713.3], [174.342414, -37.625706, 4055.3], [174.192553, -37.834607, 5400.6], [174.042691, -38.043509, 6742.6], [173.892829, -38.252411, 8086.2], [173.742967, -38.461313, 9423.7], [173.593105, -38.670215, 10499.5], [173.448709, -38.881462, 10497.2], [173.313278, -39.096558, 10498.3], [173.177848, -39.311653, 10500.0], [173.042418, -39.526749, 10497.2], [172.906987, -39.741844, 10498.2], [172.771557, -39.95694, 10500.9], [172.636126, -40.172035, 10500.3], [172.500696, -40.38713, 10498.3], [172.365265, -40.602226, 10500.5], [172.229835, -40.817321, 10501.9], [172.094404, -41.032417, 10497.0], [171.958974, -41.247512, 10501.8], [171.823543, -41.462608, 10501.2], [171.663765, -41.666509, 10499.0], [171.498865, -41.868054, 10497.9], [171.333964, -42.0696, 10502.7], [171.169063, -42.271146, 10499.0], [171.004162, -42.472691, 10497.6], [170.839261, -42.674237, 10497.6], [170.67436, -42.875782, 10502.1], [170.509459, -43.077328, 10500.6], [170.344558, -43.278874, 10501.8], [170.179657, -43.480419, 10501.4], [170.014756, -43.681965, 10500.2], [169.83786, -43.876881, 10502.8], [169.659784, -44.071145, 9024.5], [169.481709, -44.265409, 7290.5], [169.303633, -44.459673, 5557.1], [169.125558, -44.653937, 3820.8], [168.947482, -44.848201, 2087.2], [168.739, -45.021, 350.5]]}, "properties": {"kind": "track", "name": "Flight AKL\u2192ZQN", "day": 1, "mode": "flight", "times": ["2026-03-02T09:00:00+13:00", "2026-03-02T09:02:49.230769+13:00", "2026-03-02T09:05:38.461538+13:00", "2026-03-02T09:08:27.692308+13:00", "2026-03-02T09:11:16.923077+13:00", "2026-03-02T09:14:06.153846+13:00", "2026-03-02T09:16:55.384615+13:00", "2026-03-02T09:19:44.615385+13:00", "2026-03-02T09:22:33.846154+13:00", "2026-03-02T09:25:23.076923+13:00", "2026-03-02T09:28:12.307692+13:00", "2026-03-02T09:31:01.538462+13:00", "2026-03-02T09:33:50.769231+13:00", "2026-03-02T09:36:40+13:00", "2026-03-02T09:39:29.230769+13:00", "2026-03-02T09:42:18.461538+13:00", "2026-03-02T09:45:07.692308+13:00", "2026-03-02T09:47:56.923077+13:00", "2026-03-02T09:50:46.153846+13:00", "2026-03-02T09:53:35.384615+13:00", "2026-03-02T09:56:24.615385+13:00", "2026-03-02T09:59:13.846154+13:00", "2026-03-02T10:02:03.076923+13:00", "2026-03-02T10:04:52.307692+13:00", "2026-03-02T10:07:41.538462+13:00", "2026-03-02T10:10:30.769231+13:00", "2026-03-02T10:13:20+13:00", "2026-03-02T10:16:09.230769+13:00", "2026-03-02T10:18:58.461538+13:00", "2026-03-02T10:21:47.692308+13:00", "2026-03-02T10:24:36.923077+13:00", "2026-03-02T10:27:26.153846+13:00", "2026-03-02T10:30:15.384615+13:00", "2026-03-02T10:33:04.615385+13:00", "2026-03-02T10:35:53.846154+13:00", "2026-03-02T10:38:43.076923+13:00", "2026-03-02T10:41:32.307692+13:00", "2026-03-02T10:44:21.538462+13:00", "2026-03-02T10:47:10.769231+13:00", "2026-03-02T10:50:00+13:00"]}}, {"type": "Feature", "geometry": {"type": "LineString", "coordinates": [[168.739002, -45.021024, 347.3], [168.73741, -45.021242, 348.7], [168.735813, -45.021381, 348.4], [168.734207, -45.021394, 348.7], [168.7326, -45.021403, 349.2], [168.730991, -45.021382, 348.3], [168.729394, -45.021527, 352.6], [168.72781, -45.021847, 350.7], [168.726219, -45.022064, 351.4], [168.724623, -45.02222, 349.3], [168.723023, -45.022329, 350.8], [168.721408, -45.022223, 351.1], [168.719804, -45.022268, 351.7], [168.718202, -45.022351, 347.2], [168.716616, -45.022636, 348.6], [168.715028, -45.022898, 352.7], [168.713438, -45.023134, 348.9], [168.711832, -45.023122, 349.4], [168.710225, -45.023129, 349.8], [168.708614, -45.023093, 348.5], [168.707027, -45.023317, 348.6], [168.705448, -45.023624, 352.4], [168.703867, -45.023907, 348.3], [168.702284, -45.024167, 350.1], [168.70067, -45.0241, 347.3], [168.699061, -45.024079, 350.8], [168.697465, -45.024202, 349.5], [168.695867, -45.024303, 349.3], [168.694298, -45.024719, 350.2], [168.692719, -45.025021, 352.2], [168.691118, -45.025095, 351.3], [168.689522, -45.025216, 350.2], [168.687908, -45.025143, 350.8], [168.686302, -45.025167, 349.6], [168.684716, -45.025395, 352.7], [168.683142, -45.025751, 348.6], [168.681559, -45.026011, 348.1], [168.680019, -45.026248, 352.2], [168.678474, -45.026489, 350.8], [168.676942, -45.026773, 347.9], [168.675421, -45.027102, 350.2], [168.673936, -45.027557, 350.2], [168.672457, -45.028033, 348.9], [168.671003, -45.028602, 352.6], [168.669545, -45.029154, 352.0], [168.668002, -45.029399, 347.3], [168.666477, -45.029713, 352.7], [168.664927, -45.029933, 349.9], [168.66344, -45.030384, 351.6], [168.662009, -45.031031, 347.8]]}, "properties": {"kind": "track", "name": "Airport \u2192 hotel", "day": 1, "mode": "drive", "times": ["2026-03-02T11:30:00+13:00", "2026-03-02T11:30:30.612245+13:00", "2026-03-02T11:31:01.224490+13:00", "2026-03-02T11:31:31.836735+13:00", "2026-03-02T11:32:02.448980+13:00", "2026-03-02T11:32:33.061224+13:00", "2026-03-02T11:33:03.673469+13:00", "2026-03-02T11:33:34.285714+13:00", "2026-03-02T11:34:04.897959+13:00", "2026-03-02T11:34:35.510204+13:00", "2026-03-02T11:35:06.122449+13:00", "2026-03-02T11:35:36.734694+13:00", "2026-03-02T11:36:07.346939+13:00", "2026-03-02T11:36:37.959184+13:00", "2026-03-02T11:37:08.571429+13:00", "2026-03-02T11:37:39.183673+13:00", "2026-03-02T11:38:09.795918+13:00", "2026-03-02T11:38:40.408163+13:00", "2026-03-02T11:39:11.020408+13:00", "2026-03-02T11:39:41.632653+13:00", "2026-03-02T11:40:12.244898+13:00", "2026-03-02T11:40:42.857143+13:00", "2026-03-02T11:41:13.469388+13:00", "2026-03-02T11:41:44.081633+13:00", "2026-03-02T11:42:14.693878+13:00", "2026-03-02T11:42:45.306122+13:00", "2026-03-02T11:43:15.918367+13:00", "2026-03-02T11:43:46.530612+13:00", "2026-03-02T11:44:17.142857+13:00", "2026-03-02T11:44:47.755102+13:00", "2026-03-02T11:45:18.367347+13:00", "2026-03-02T11:45:48.979592+13:00", "2026-03-02T11:46:19.591837+13:00", "2026-03-02T11:46:50.204082+13:00", "2026-03-02T11:47:20.816327+13:00", "2026-03-02T11:47:51.428571+13:00", "2026-03-02T11:48:22.040816+13:00", "2026-03-02T11:48:52.653061+13:00", "2026-03-02T11:49:23.265306+13:00", "2026-03-02T11:49:53.877551+13:00", "2026-03-02T11:50:24.489796+13:00", "2026-03-02T11:50:55.102041+13:00", "2026-03-02T11:51:25.714286+13:00", "2026-03-02T11:51:56.326531+13:00", "2026-03-02T11:52:26.938776+13:00", "2026-03-02T11:52:57.551020+13:00", "2026-03-02T11:53:28.163265+13:00", "2026-03-02T11:53:58.775510+13:00", "2026-03-02T11:54:29.387755+13:00", "2026-03-02T11:55:00+13:00"]}}, {"type": "Feature", "geometry": {"type": "LineString", "coordinates": [[168.661998, -45.030994, 340.3], [168.658857, -45.03223, 342.2], [168.65574, -45.033531, 338.3], [168.652608, -45.034788, 341.4], [168.649421, -45.035897, 338.9], [168.646309, -45.037211, 340.9], [168.643069, -45.038171, 340.1], [168.639833, -45.039145, 338.3], [168.636632, -45.040213, 340.5], [168.633401, -45.041197, 338.3], [168.630168, -45.04218, 340.8], [168.626972, -45.043261, 342.4], [168.623829, -45.044489, 337.4], [168.620601, -45.045484, 341.0], [168.61744, -45.046664, 337.8], [168.614502, -45.047606, 340.4], [168.611453, -45.046308, 341.7], [168.608321, -45.045203, 338.1], [168.605288, -45.043869, 339.6], [168.602165, -45.042744, 339.8], [168.599058, -45.041582, 341.0], [168.595974, -45.040365, 337.6], [168.592992, -45.038913, 339.0], [168.589931, -45.037643, 338.5], [168.586995, -45.036085, 339.7], [168.583984, -45.034699, 338.7], [168.581015, -45.033215, 342.5], [168.578008, -45.031821, 342.2], [168.574998, -45.030434, 337.3], [168.571938, -45.029162, 342.0], [168.568903, -45.027832, 342.6], [168.565855, -45.026531, 338.0], [168.562812, -45.025222, 338.3], [168.559727, -45.024007, 337.4], [168.556629, -45.022824, 342.9], [168.55354, -45.021621, 341.7], [168.550429, -45.020466, 339.5], [168.547971, -45.018633, 343.0], [168.545954, -45.016537, 341.3], [168.543975, -45.014402, 338.8], [168.541826, -45.012437, 340.5], [168.539919, -45.010231, 341.5], [168.538041, -45.007995, 340.5], [168.536013, -45.00591, 342.1], [168.534111, -45.003697, 342.8], [168.532144, -45.001551, 338.1], [168.530047, -44.999535, 341.1], [168.52806, -44.997407, 337.7], [168.525864, -44.99549, 338.5], [168.523795, -44.993446, 340.7], [168.521679, -44.991447, 340.5], [168.519503, -44.98951, 342.6], [168.517398, -44.987502, 341.3], [168.515247, -44.985539, 339.4], [168.513054, -44.983618, 338.8], [168.511029, -44.981529, 341.5], [168.509023, -44.979422, 339.7], [168.506855, -44.977476, 343.0], [168.505032, -44.975185, 338.3], [168.503039, -44.973064, 342.6], [168.500982, -44.971007, 342.3], [168.499109, -44.968767, 337.9], [168.49705, -44.966712, 341.2], [168.495077, -44.964571, 342.9], [168.493023, -44.962512, 337.0], [168.49091, -44.960511, 338.8], [168.488817, -44.958491, 342.6], [168.486761, -44.956433, 337.7], [168.484607, -44.954473, 340.3], [168.48242, -44.952547, 340.6], [168.480199, -44.950654, 338.2], [168.477923, -44.948777, 338.6], [168.475614, -44.94686, 342.4], [168.473263, -44.944995, 337.6], [168.471065, -44.942946, 338.7], [168.468894, -44.940864, 341.6], [168.466579, -44.938954, 338.6], [168.464352, -44.93694, 340.3], [168.462183, -44.934856, 337.1], [168.460002, -44.932787, 342.3], [168.457611, -44.930968, 340.3], [168.455325, -44.929024, 340.5], [168.4531, -44.927007, 337.8], [168.450714, -44.925184, 342.4], [168.448254, -44.923449, 342.2], [168.44584, -44.921658, 338.3], [168.443543, -44.919729, 337.6], [168.441076, -44.918002, 342.3], [168.438772, -44.91608, 340.7], [168.436479, -44.914143, 342.6], [168.434074, -44.912343, 342.9], [168.431819, -44.910362, 342.3], [168.429704, -44.908213, 341.4], [168.42744, -44.906243, 342.6], [168.425157, -44.904296, 342.2], [168.422938, -44.902271, 338.6], [168.420706, -44.900263, 337.6], [168.418962, -44.898124, 342.2], [168.417429, -44.895797, 341.9], [168.415682, -44.89363, 338.8], [168.413878, -44.891506, 338.4], [168.412257, -44.889245, 338.2], [168.410414, -44.88715, 342.2], [168.408507, -44.885103, 338.7], [168.4068, -44.882906, 339.4], [168.404995, -44.880783, 340.2], [168.403302, -44.878575, 337.7], [168.401638, -44.876346, 338.1], [168.400023, -44.874081, 338.6], [168.398604, -44.871667, 339.6], [168.396926, -44.869449, 338.9], [168.395398, -44.867117, 340.1], [168.393881, -44.864778, 340.5], [168.392324, -44.862469, 341.3], [168.390756, -44.860168, 342.6], [168.389175, -44.857979, 341.3], [168.387638, -44.85573, 341.0], [168.386178, -44.853432, 337.4], [168.38455, -44.851241, 339.0], [168.383038, -44.848976, 342.1]]}, "properties": {"kind": "track", "name": "Queenstown \u2192 Glenorchy", "day": 2, "mode": "drive", "times": ["2026-03-03T09:00:00+13:00", "2026-03-03T09:00:25.210084+13:00", "2026-03-03T09:00:50.420168+13:00", "2026-03-03T09:01:15.630252+13:00", "2026-03-03T09:01:40.840336+13:00", "2026-03-03T09:02:06.050420+13:00", "2026-03-03T09:02:31.260504+13:00", "2026-03-03T09:02:56.470588+13:00", "2026-03-03T09:03:21.680672+13:00", "2026-03-03T09:03:46.890756+13:00", "2026-03-03T09:04:12.100840+13:00", "2026-03-03T09:04:37.310924+13:00", "2026-03-03T09:05:02.521008+13:00", "2026-03-03T09:05:27.731092+13:00", "2026-03-03T09:05:52.941176+13:00", "2026-03-03T09:06:18.151261+13:00", "2026-03-03T09:06:43.361345+13:00", "2026-03-03T09:07:08.571429+13:00", "2026-03-03T09:07:33.781513+13:00", "2026-03-03T09:07:58.991597+13:00", "2026-03-03T09:08:24.201681+13:00", "2026-03-03T09:08:49.411765+13:00", "2026-03-03T09:09:14.621849+13:00", "2026-03-03T09:09:39.831933+13:00", "2026-03-03T09:10:05.042017+13:00", "2026-03-03T09:10:30.252101+13:00", "2026-03-03T09:10:55.462185+13:00", "2026-03-03T09:11:20.672269+13:00", "2026-03-03T09:11:45.882353+13:00", "2026-03-03T09:12:11.092437+13:00", "2026-03-03T09:12:36.302521+13:00", "2026-03-03T09:13:01.512605+13:00", "2026-03-03T09:13:26.722689+13:00", "2026-03-03T09:13:51.932773+13:00", "2026-03-03T09:14:17.142857+13:00", "2026-03-03T09:14:42.352941+13:00", "2026-03-03T09:15:07.563025+13:00", "2026-03-03T09:15:32.773109+13:00", "2026-03-03T09:15:57.983193+13:00", "2026-03-03T09:16:23.193277+13:00", "2026-03-03T09:16:48.403361+13:00", "2026-03-03T09:17:13.613445+13:00", "2026-03-03T09:17:38.823529+13:00", "2026-03-03T09:18:04.033613+13:00", "2026-03-03T09:18:29.243697+13:00", "2026-03-03T09:18:54.453782+13:00", "2026-03-03T09:19:19.663866+13:00", "2026-03-03T09:19:44.873950+13:00", "2026-03-03T09:20:10.084034+13:00", "2026-03-03T09:20:35.294118+13:00", "2026-03-03T09:21:00.504202+13:00", "2026-03-03T09:21:25.714286+13:00", "2026-03-03T09:21:50.924370+13:00", "2026-03-03T09:22:16.134454+13:00", "2026-03-03T09:22:41.344538+13:00", "2026-03-03T09:23:06.554622+13:00", "2026-03-03T09:23:31.764706+13:00", "2026-03-03T09:23:56.974790+13:00", "2026-03-03T09:24:22.184874+13:00", "2026-03-03T09:24:47.394958+13:00", "2026-03-03T09:25:12.605042+13:00", "2026-03-03T09:25:37.815126+13:00", "2026-03-03T09:26:03.025210+13:00", "2026-03-03T09:26:28.235294+13:00", "2026-03-03T09:26:53.445378+13:00", "2026-03-03T09:27:18.655462+13:00", "2026-03-03T09:27:43.865546+13:00", "2026-03-03T09:28:09.075630+13:00", "2026-03-03T09:28:34.285714+13:00", "2026-03-03T09:28:59.495798+13:00", "2026-03-03T09:29:24.705882+13:00", "2026-03-03T09:29:49.915966+13:00", "2026-03-03T09:30:15.126050+13:00", "2026-03-03T09:30:40.336134+13:00", "2026-03-03T09:31:05.546218+13:00", "2026-03-03T09:31:30.756303+13:00", "2026-03-03T09:31:55.966387+13:00", "2026-03-03T09:32:21.176471+13:00", "2026-03-03T09:32:46.386555+13:00", "2026-03-03T09:33:11.596639+13:00", "2026-03-03T09:33:36.806723+13:00", "2026-03-03T09:34:02.016807+13:00", "2026-03-03T09:34:27.226891+13:00", "2026-03-03T09:34:52.436975+13:00", "2026-03-03T09:35:17.647059+13:00", "2026-03-03T09:35:42.857143+13:00", "2026-03-03T09:36:08.067227+13:00", "2026-03-03T09:36:33.277311+13:00", "2026-03-03T09:36:58.487395+13:00", "2026-03-03T09:37:23.697479+13:00", "2026-03-03T09:37:48.907563+13:00", "2026-03-03T09:38:14.117647+13:00", "2026-03-03T09:38:39.327731+13:00", "2026-03-03T09:39:04.537815+13:00", "2026-03-03T09:39:29.747899+13:00", "2026-03-03T09:39:54.957983+13:00", "2026-03-03T09:40:20.168067+13:00", "2026-03-03T09:40:45.378151+13:00", "2026-03-03T09:41:10.588235+13:00", "2026-03-03T09:41:35.798319+13:00", "2026-03-03T09:42:01.008403+13:00", "2026-03-03T09:42:26.218487+13:00", "2026-03-03T09:42:51.428571+13:00", "2026-03-03T09:43:16.638655+13:00", "2026-03-03T09:43:41.848739+13:00", "2026-03-03T09:44:07.058824+13:00", "2026-03-03T09:44:32.268908+13:00", "2026-03-03T09:44:57.478992+13:00", "2026-03-03T09:45:22.689076+13:00", "2026-03-03T09:45:47.899160+13:00", "2026-03-03T09:46:13.109244+13:00", "2026-03-03T09:46:38.319328+13:00", "2026-03-03T09:47:03.529412+13:00", "2026-03-03T09:47:28.739496+13:00", "2026-03-03T09:47:53.949580+13:00", "2026-03-03T09:48:19.159664+13:00", "2026-03-03T09:48:44.369748+13:00", "2026-03-03T09:49:09.579832+13:00", "2026-03-03T09:49:34.789916+13:00", "2026-03-03T09:50:00+13:00"]}}, {"type": "Feature", "geometry": {"type": "LineString", "coordinates": [[168.385998, -44.846524, 318.8], [168.386266, -44.84649, 319.5], [168.386529, -44.846401, 318.8], [168.386798, -44.846366, 319.5], [168.387055, -44.846214, 321.1], [168.387324, -44.84618, 320.7], [168.3876, -44.84623, 320.3], [168.387839, -44.846229, 318.7], [168.388086, -44.84614, 320.5], [168.388343, -44.846087, 319.8], [168.388617, -44.846092, 318.3], [168.388884, -44.846072, 322.4], [168.38914, -44.846016, 318.0], [168.389446, -44.846037, 320.1], [168.38965, -44.845897, 319.0], [168.389868, -44.845783, 321.5], [168.390096, -44.845689, 318.3], [168.390335, -44.845615, 317.1], [168.390537, -44.845471, 319.9], [168.390702, -44.845233, 317.4], [168.390869, -44.845082, 320.8], [168.391015, -44.844907, 321.2], [168.391118, -44.844685, 318.5], [168.391235, -44.844478, 317.0], [168.391362, -44.844283, 321.6], [168.391527, -44.844191, 319.6], [168.391609, -44.843999, 322.7], [168.391677, -44.8438, 317.3], [168.391823, -44.843646, 322.1], [168.391934, -44.843472, 321.8], [168.392055, -44.843304, 322.9], [168.392214, -44.843158, 322.7], [168.39227, -44.842994, 320.7], [168.392383, -44.842818, 320.0], [168.392457, -44.842634, 320.3], [168.392527, -44.84245, 321.5], [168.392641, -44.842274, 318.6], [168.392717, -44.84209, 320.8], [168.392633, -44.841827, 320.1], [168.392593, -44.841637, 318.6], [168.392586, -44.84144, 318.7], [168.39248, -44.841263, 318.9], [168.392358, -44.841088, 317.8], [168.3923, -44.840901, 321.2], [168.392126, -44.840774, 317.4], [168.392009, -44.840603, 320.3], [168.39187, -44.840445, 318.2], [168.391744, -44.84028, 322.4], [168.391617, -44.840116, 321.2], [168.391492, -44.83995, 321.6], [168.391463, -44.839774, 317.0], [168.391326, -44.839589, 321.5], [168.391153, -44.839443, 322.7], [168.391061, -44.83921, 321.5], [168.390923, -44.839026, 320.6], [168.39082, -44.838805, 318.3], [168.390626, -44.838623, 317.2], [168.39043, -44.838467, 321.1], [168.390218, -44.838343, 318.0], [168.389999, -44.838232, 317.8], [168.389766, -44.838147, 317.2], [168.389547, -44.838035, 320.4], [168.38933, -44.83792, 320.9], [168.389029, -44.837898, 319.8], [168.388764, -44.837871, 319.3], [168.388491, -44.837873, 319.0], [168.388207, -44.837913, 319.3], [168.387944, -44.837879, 322.0], [168.387702, -44.837776, 317.5], [168.387468, -44.837728, 320.2], [168.387189, -44.837815, 319.1], [168.386925, -44.837726, 321.7], [168.386659, -44.837664, 321.5], [168.386391, -44.837626, 318.2], [168.386137, -44.837434, 317.9], [168.385859, -44.837388, 321.0], [168.385589, -44.83741, 318.3], [168.385317, -44.837402, 321.6], [168.385038, -44.837326, 320.6], [168.384773, -44.837398, 317.7], [168.384504, -44.837426, 322.8], [168.384189, -44.837398, 317.2], [168.383952, -44.837521, 321.1], [168.383734, -44.837709, 319.4], [168.383489, -44.837803, 317.5], [168.383252, -44.837929, 320.8], [168.382998, -44.83799, 321.6], [168.382816, -44.83819, 320.6], [168.382579, -44.838269, 322.9], [168.382415, -44.838484, 319.1], [168.382187, -44.838577, 319.2], [168.381974, -44.838701, 319.0], [168.381769, -44.838838, 321.9], [168.381494, -44.838847, 322.8], [168.38135, -44.83899, 322.0], [168.381152, -44.839108, 319.6], [168.380948, -44.83922, 322.8], [168.380705, -44.839288, 321.8], [168.380525, -44.839426, 319.9], [168.380323, -44.839538, 321.4], [168.380121, -44.839721, 322.1], [168.380065, -44.839928, 317.5], [168.379971, -44.840112, 318.5], [168.379843, -44.840276, 320.7], [168.379762, -44.840468, 317.2], [168.379748, -44.840699, 318.1], [168.379648, -44.840891, 321.8], [168.379685, -44.841096, 322.3], [168.379746, -44.841305, 318.7], [168.379676, -44.84149, 322.7], [168.379685, -44.841689, 321.3], [168.379717, -44.841893, 321.5], [168.379727, -44.842007, 320.9], [168.379727, -44.842204, 321.8], [168.379688, -44.842409, 318.3], [168.379752, -44.842595, 318.8], [168.379723, -44.842798, 319.8], [168.379696, -44.843001, 319.6], [168.379709, -44.843204, 319.0], [168.379763, -44.843412, 318.6], [168.379783, -44.84364, 317.7], [168.379856, -44.843837, 317.7], [168.379983, -44.844001, 321.6], [168.380053, -44.844199, 318.3], [168.380206, -44.844349, 321.3], [168.380463, -44.844476, 320.1], [168.380605, -44.844655, 317.6], [168.380801, -44.844774, 318.4], [168.381006, -44.844884, 317.1], [168.38124, -44.844962, 318.6], [168.381477, -44.845038, 320.3], [168.381645, -44.845133, 317.8], [168.381883, -44.845208, 319.9], [168.382104, -44.845316, 320.4], [168.382294, -44.845482, 319.6], [168.382483, -44.84565, 317.3], [168.382724, -44.845721, 319.9], [168.382904, -44.845864, 319.4], [168.383114, -44.846077, 320.8], [168.383349, -44.846209, 317.9], [168.383602, -44.846277, 318.8], [168.383854, -44.846345, 317.7], [168.384088, -44.846479, 320.6], [168.384369, -44.846562, 318.4], [168.384635, -44.846621, 319.7], [168.384905, -44.846642, 322.2], [168.385183, -44.846571, 318.8], [168.385452, -44.846597, 320.7], [168.385728, -44.846554, 322.7], [168.385997, -44.846585, 318.3]]}, "properties": {"kind": "track", "name": "Glenorchy Lagoon walkway", "day": 2, "mode": "hike", "times": ["2026-03-03T10:15:00+13:00", "2026-03-03T10:15:42.281879+13:00", "2026-03-03T10:16:24.563758+13:00", "2026-03-03T10:17:06.845638+13:00", "2026-03-03T10:17:49.127517+13:00", "2026-03-03T10:18:31.409396+13:00", "2026-03-03T10:19:13.691275+13:00", "2026-03-03T10:19:55.973154+13:00", "2026-03-03T10:20:38.255034+13:00", "2026-03-03T10:21:20.536913+13:00", "2026-03-03T10:22:02.818792+13:00", "2026-03-03T10:22:45.100671+13:00", "2026-03-03T10:23:27.382550+13:00", "2026-03-03T10:24:09.664430+13:00", "2026-03-03T10:24:51.946309+13:00", "2026-03-03T10:25:34.228188+13:00", "2026-03-03T10:26:16.510067+13:00", "2026-03-03T10:26:58.791946+13:00", "2026-03-03T10:27:41.073826+13:00", "2026-03-03T10:28:23.355705+13:00", "2026-03-03T10:29:05.637584+13:00", "2026-03-03T10:29:47.919463+13:00", "2026-03-03T10:30:30.201342+13:00", "2026-03-03T10:31:12.483221+13:00", "2026-03-03T10:31:54.765101+13:00", "2026-03-03T10:32:37.046980+13:00", "2026-03-03T10:33:19.328859+13:00", "2026-03-03T10:34:01.610738+13:00", "2026-03-03T10:34:43.892617+13:00", "2026-03-03T10:35:26.174497+13:00", "2026-03-03T10:36:08.456376+13:00", "2026-03-03T10:36:50.738255+13:00", "2026-03-03T10:37:33.020134+13:00", "2026-03-03T10:38:15.302013+13:00", "2026-03-03T10:38:57.583893+13:00", "2026-03-03T10:39:39.865772+13:00", "2026-03-03T10:40:22.147651+13:00", "2026-03-03T10:41:04.429530+13:00", "2026-03-03T10:41:46.711409+13:00", "2026-03-03T10:42:28.993289+13:00", "2026-03-03T10:43:11.275168+13:00", "2026-03-03T10:43:53.557047+13:00", "2026-03-03T10:44:35.838926+13:00", "2026-03-03T10:45:18.120805+13:00", "2026-03-03T10:46:00.402685+13:00", "2026-03-03T10:46:42.684564+13:00", "2026-03-03T10:47:24.966443+13:00", "2026-03-03T10:48:07.248322+13:00", "2026-03-03T10:48:49.530201+13:00", "2026-03-03T10:49:31.812081+13:00", "2026-03-03T10:50:14.093960+13:00", "2026-03-03T10:50:56.375839+13:00", "2026-03-03T10:51:38.657718+13:00", "2026-03-03T10:52:20.939597+13:00", "2026-03-03T10:53:03.221477+13:00", "2026-03-03T10:53:45.503356+13:00", "2026-03-03T10:54:27.785235+13:00", "2026-03-03T10:55:10.067114+13:00", "2026-03-03T10:55:52.348993+13:00", "2026-03-03T10:56:34.630872+13:00", "2026-03-03T10:57:16.912752+13:00", "2026-03-03T10:57:59.194631+13:00", "2026-03-03T10:58:41.476510+13:00", "2026-03-03T10:59:23.758389+13:00", "2026-03-03T11:00:06.040268+13:00", "2026-03-03T11:00:48.322148+13:00", "2026-03-03T11:01:30.604027+13:00", "2026-03-03T11:02:12.885906+13:00", "2026-03-03T11:02:55.167785+13:00", "2026-03-03T11:03:37.449664+13:00", "2026-03-03T11:04:19.731544+13:00", "2026-03-03T11:05:02.013423+13:00", "2026-03-03T11:05:44.295302+13:00", "2026-03-03T11:06:26.577181+13:00", "2026-03-03T11:07:08.859060+13:00", "2026-03-03T11:07:51.140940+13:00", "2026-03-03T11:08:33.422819+13:00", "2026-03-03T11:09:15.704698+13:00", "2026-03-03T11:09:57.986577+13:00", "2026-03-03T11:10:40.268456+13:00", "2026-03-03T11:11:22.550336+13:00", "2026-03-03T11:12:04.832215+13:00", "2026-03-03T11:12:47.114094+13:00", "2026-03-03T11:13:29.395973+13:00", "2026-03-03T11:14:11.677852+13:00", "2026-03-03T11:14:53.959732+13:00", "2026-03-03T11:15:36.241611+13:00", "2026-03-03T11:16:18.523490+13:00", "2026-03-03T11:17:00.805369+13:00", "2026-03-03T11:17:43.087248+13:00", "2026-03-03T11:18:25.369128+13:00", "2026-03-03T11:19:07.651007+13:00", "2026-03-03T11:19:49.932886+13:00", "2026-03-03T11:20:32.214765+13:00", "2026-03-03T11:21:14.496644+13:00", "2026-03-03T11:21:56.778523+13:00", "2026-03-03T11:22:39.060403+13:00", "2026-03-03T11:23:21.342282+13:00", "2026-03-03T11:24:03.624161+13:00", "2026-03-03T11:24:45.906040+13:00", "2026-03-03T11:25:28.187919+13:00", "2026-03-03T11:26:10.469799+13:00", "2026-03-03T11:26:52.751678+13:00", "2026-03-03T11:27:35.033557+13:00", "2026-03-03T11:28:17.315436+13:00", "2026-03-03T11:28:59.597315+13:00", "2026-03-03T11:29:41.879195+13:00", "2026-03-03T11:30:24.161074+13:00", "2026-03-03T11:31:06.442953+13:00", "2026-03-03T11:31:48.724832+13:00", "2026-03-03T11:32:31.006711+13:00", "2026-03-03T11:33:13.288591+13:00", "2026-03-03T11:33:55.570470+13:00", "2026-03-03T11:34:37.852349+13:00", "2026-03-03T11:35:20.134228+13:00", "2026-03-03T11:36:02.416107+13:00", "2026-03-03T11:36:44.697987+13:00", "2026-03-03T11:37:26.979866+13:00", "2026-03-03T11:38:09.261745+13:00", "2026-03-03T11:38:51.543624+13:00", "2026-03-03T11:39:33.825503+13:00", "2026-03-03T11:40:16.107383+13:00", "2026-03-03T11:40:58.389262+13:00", "2026-03-03T11:41:40.671141+13:00", "2026-03-03T11:42:22.953020+13:00", "2026-03-03T11:43:05.234899+13:00", "2026-03-03T11:43:47.516779+13:00", "2026-03-03T11:44:29.798658+13:00", "2026-03-03T11:45:12.080537+13:00", "2026-03-03T11:45:54.362416+13:00", "2026-03-03T11:46:36.644295+13:00", "2026-03-03T11:47:18.926174+13:00", "2026-03-03T11:48:01.208054+13:00", "2026-03-03T11:48:43.489933+13:00", "2026-03-03T11:49:25.771812+13:00", "2026-03-03T11:50:08.053691+13:00", "2026-03-03T11:50:50.335570+13:00", "2026-03-03T11:51:32.617450+13:00", "2026-03-03T11:52:14.899329+13:00", "2026-03-03T11:52:57.181208+13:00", "2026-03-03T11:53:39.463087+13:00", "2026-03-03T11:54:21.744966+13:00", "2026-03-03T11:55:04.026846+13:00", "2026-03-03T11:55:46.308725+13:00", "2026-03-03T11:56:28.590604+13:00", "2026-03-03T11:57:10.872483+13:00", "2026-03-03T11:57:53.154362+13:00", "2026-03-03T11:58:35.436242+13:00", "2026-03-03T11:59:17.718121+13:00", "2026-03-03T12:00:00+13:00"]}}, {"type": "Feature", "geometry": {"type": "LineString", "coordinates": [[168.383032, -44.848979, 337.9], [168.384519, -44.851264, 337.5], [168.386053, -44.853518, 339.7], [168.38771, -44.855693, 338.7], [168.389134, -44.858017, 341.2], [168.390707, -44.86022, 339.7], [168.392322, -44.862489, 342.5], [168.393924, -44.864767, 340.8], [168.395461, -44.867094, 342.6], [168.396968, -44.869443, 340.3], [168.398571, -44.871721, 342.5], [168.400189, -44.873987, 337.4], [168.40168, -44.876349, 338.8], [168.403452, -44.8785, 340.4], [168.405066, -44.880769, 337.7], [168.406884, -44.882885, 341.2], [168.408703, -44.885001, 340.0], [168.410402, -44.887206, 337.5], [168.412101, -44.889411, 339.6], [168.413926, -44.891523, 338.5], [168.415622, -44.89373, 342.8], [168.417468, -44.895826, 340.5], [168.419149, -44.898044, 343.0], [168.420818, -44.900212, 338.6], [168.422957, -44.902333, 341.5], [168.42524, -44.90428, 340.9], [168.42752, -44.906232, 338.1], [168.429687, -44.90832, 340.8], [168.431908, -44.910342, 337.5], [168.43415, -44.91234, 339.0], [168.436496, -44.914212, 342.1], [168.438775, -44.916165, 341.2], [168.44113, -44.918025, 342.7], [168.443596, -44.919754, 340.3], [168.445939, -44.92163, 338.9], [168.448317, -44.923464, 342.8], [168.450714, -44.925275, 340.1], [168.453166, -44.92702, 340.9], [168.455429, -44.928992, 339.5], [168.457671, -44.930989, 339.2], [168.460022, -44.932856, 340.8], [168.462258, -44.93486, 338.2], [168.464443, -44.936925, 342.6], [168.466638, -44.93898, 341.2], [168.468806, -44.941064, 342.8], [168.471117, -44.942979, 338.4], [168.473311, -44.945034, 340.3], [168.475669, -44.946893, 337.6], [168.478067, -44.948702, 342.5], [168.480273, -44.950667, 337.7], [168.482481, -44.952573, 340.0], [168.484622, -44.954548, 340.1], [168.486706, -44.956579, 342.0], [168.488972, -44.958428, 338.5], [168.49102, -44.960496, 339.3], [168.493169, -44.962462, 340.0], [168.49521, -44.964537, 342.2], [168.497119, -44.966743, 341.7], [168.499123, -44.968854, 342.6], [168.501099, -44.970993, 341.9], [168.503015, -44.973193, 338.8], [168.505027, -44.975296, 343.0], [168.506992, -44.977447, 337.9], [168.509011, -44.979542, 339.1], [168.511062, -44.981607, 340.3], [168.513131, -44.983653, 338.9], [168.515206, -44.985693, 341.2], [168.517417, -44.987597, 338.4], [168.519612, -44.989518, 337.3], [168.521766, -44.991479, 341.2], [168.523924, -44.993437, 339.3], [168.526019, -44.995457, 341.9], [168.528159, -44.997432, 340.0], [168.530047, -44.99966, 340.0], [168.532152, -45.00167, 342.2], [168.534181, -45.003756, 339.6], [168.536083, -45.00597, 339.7], [168.53807, -45.008098, 339.5], [168.540019, -45.010264, 337.9], [168.541968, -45.01243, 342.8], [168.543957, -45.014556, 341.2], [168.546058, -45.016571, 342.1], [168.548179, -45.018566, 342.2], [168.550517, -45.020548, 338.9], [168.553639, -45.021668, 341.6], [168.556751, -45.022811, 337.2], [168.559773, -45.024165, 340.8], [168.562944, -45.025172, 343.0], [168.566003, -45.026439, 339.6], [168.568997, -45.027855, 340.8], [168.572106, -45.029006, 339.7], [168.575104, -45.030416, 342.4], [168.57804, -45.031968, 341.8], [168.581049, -45.033349, 339.2], [168.584018, -45.034826, 340.2], [168.587044, -45.036169, 341.8], [168.590004, -45.037666, 337.5], [168.593085, -45.038882, 340.7], [168.59606, -45.040343, 342.5], [168.599107, -45.041637, 339.8], [168.602193, -45.042841, 338.5], [168.60526, -45.04409, 341.8], [168.608442, -45.04507, 341.1], [168.611469, -45.046411, 339.7], [168.614577, -45.047565, 340.5], [168.617499, -45.04668, 339.5], [168.620686, -45.045583, 342.1], [168.623864, -45.044461, 339.3], [168.627033, -45.043313, 338.4], [168.630231, -45.042248, 340.4], [168.633413, -45.041136, 338.8], [168.636633, -45.040131, 340.9], [168.639906, -45.039273, 340.4], [168.643079, -45.038136, 341.5], [168.646322, -45.037195, 340.6], [168.649459, -45.03596, 342.4], [168.652632, -45.034824, 341.8], [168.655745, -45.033522, 339.1], [168.658869, -45.032251, 340.7], [168.661985, -45.03096, 341.3]]}, "properties": {"kind": "track", "name": "Glenorchy \u2192 Queenstown", "day": 2, "mode": "drive", "times": ["2026-03-03T14:00:00+13:00", "2026-03-03T14:00:25.210084+13:00", "2026-03-03T14:00:50.420168+13:00", "2026-03-03T14:01:15.630252+13:00", "2026-03-03T14:01:40.840336+13:00", "2026-03-03T14:02:06.050420+13:00", "2026-03-03T14:02:31.260504+13:00", "2026-03-03T14:02:56.470588+13:00", "2026-03-03T14:03:21.680672+13:00", "2026-03-03T14:03:46.890756+13:00", "2026-03-03T14:04:12.100840+13:00", "2026-03-03T14:04:37.310924+13:00", "2026-03-03T14:05:02.521008+13:00", "2026-03-03T14:05:27.731092+13:00", "2026-03-03T14:05:52.941176+13:00", "2026-03-03T14:06:18.151261+13:00", "2026-03-03T14:06:43.361345+13:00", "2026-03-03T14:07:08.571429+13:00", "2026-03-03T14:07:33.781513+13:00", "2026-03-03T14:07:58.991597+13:00", "2026-03-03T14:08:24.201681+13:00", "2026-03-03T14:08:49.411765+13:00", "2026-03-03T14:09:14.621849+13:00", "2026-03-03T14:09:39.831933+13:00", "2026-03-03T14:10:05.042017+13:00", "2026-03-03T14:10:30.252101+13:00", "2026-03-03T14:10:55.462185+13:00", "2026-03-03T14:11:20.672269+13:00", "2026-03-03T14:11:45.882353+13:00", "2026-03-03T14:12:11.092437+13:00", "2026-03-03T14:12:36.302521+13:00", "2026-03-03T14:13:01.512605+13:00", "2026-03-03T14:13:26.722689+13:00", "2026-03-03T14:13:51.932773+13:00", "2026-03-03T14:14:17.142857+13:00", "2026-03-03T14:14:42.352941+13:00", "2026-03-03T14:15:07.563025+13:00", "2026-03-03T14:15:32.773109+13:00", "2026-03-03T14:15:57.983193+13:00", "2026-03-03T14:16:23.193277+13:00", "2026-03-03T14:16:48.403361+13:00", "2026-03-03T14:17:13.613445+13:00", "2026-03-03T14:17:38.823529+13:00", "2026-03-03T14:18:04.033613+13:00", "2026-03-03T14:18:29.243697+13:00", "2026-03-03T14:18:54.453782+13:00", "2026-03-03T14:19:19.663866+13:00", "2026-03-03T14:19:44.873950+13:00", "2026-03-03T14:20:10.084034+13:00", "2026-03-03T14:20:35.294118+13:00", "2026-03-03T14:21:00.504202+13:00", "2026-03-03T14:21:25.714286+13:00", "2026-03-03T14:21:50.924370+13:00", "2026-03-03T14:22:16.134454+13:00", "2026-03-03T14:22:41.344538+13:00", "2026-03-03T14:23:06.554622+13:00", "2026-03-03T14:23:31.764706+13:00", "2026-03-03T14:23:56.974790+13:00", "2026-03-03T14:24:22.184874+13:00", "2026-03-03T14:24:47.394958+13:00", "2026-03-03T14:25:12.605042+13:00", "2026-03-03T14:25:37.815126+13:00", "2026-03-03T14:26:03.025210+13:00", "2026-03-03T14:26:28.235294+13:00", "2026-03-03T14:26:53.445378+13:00", "2026-03-03T14:27:18.655462+13:00", "2026-03-03T14:27:43.865546+13:00", "2026-03-03T14:28:09.075630+13:00", "2026-03-03T14:28:34.285714+13:00", "2026-03-03T14:28:59.495798+13:00", "2026-03-03T14:29:24.705882+13:00", "2026-03-03T14:29:49.915966+13:00", "2026-03-03T14:30:15.126050+13:00", "2026-03-03T14:30:40.336134+13:00", "2026-03-03T14:31:05.546218+13:00", "2026-03-03T14:31:30.756303+13:00", "2026-03-03T14:31:55.966387+13:00", "2026-03-03T14:32:21.176471+13:00", "2026-03-03T14:32:46.386555+13:00", "2026-03-03T14:33:11.596639+13:00", "2026-03-03T14:33:36.806723+13:00", "2026-03-03T14:34:02.016807+13:00", "2026-03-03T14:34:27.226891+13:00", "2026-03-03T14:34:52.436975+13:00", "2026-03-03T14:35:17.647059+13:00", "2026-03-03T14:35:42.857143+13:00", "2026-03-03T14:36:08.067227+13:00", "2026-03-03T14:36:33.277311+13:00", "2026-03-03T14:36:58.487395+13:00", "2026-03-03T14:37:23.697479+13:00", "2026-03-03T14:37:48.907563+13:00", "2026-03-03T14:38:14.117647+13:00", "2026-03-03T14:38:39.327731+13:00", "2026-03-03T14:39:04.537815+13:00", "2026-03-03T14:39:29.747899+13:00", "2026-03-03T14:39:54.957983+13:00", "2026-03-03T14:40:20.168067+13:00", "2026-03-03T14:40:45.378151+13:00", "2026-03-03T14:41:10.588235+13:00", "2026-03-03T14:41:35.798319+13:00", "2026-03-03T14:42:01.008403+13:00", "2026-03-03T14:42:26.218487+13:00", "2026-03-03T14:42:51.428571+13:00", "2026-03-03T14:43:16.638655+13:00", "2026-03-03T14:43:41.848739+13:00", "2026-03-03T14:44:07.058824+13:00", "2026-03-03T14:44:32.268908+13:00", "2026-03-03T14:44:57.478992+13:00", "2026-03-03T14:45:22.689076+13:00", "2026-03-03T14:45:47.899160+13:00", "2026-03-03T14:46:13.109244+13:00", "2026-03-03T14:46:38.319328+13:00", "2026-03-03T14:47:03.529412+13:00", "2026-03-03T14:47:28.739496+13:00", "2026-03-03T14:47:53.949580+13:00", "2026-03-03T14:48:19.159664+13:00", "2026-03-03T14:48:44.369748+13:00", "2026-03-03T14:49:09.579832+13:00", "2026-03-03T14:49:34.789916+13:00", "2026-03-03T14:50:00+13:00"]}}, {"type": "Feature", "geometry": {"type": "LineString", "coordinates": [[168.661984, -45.030955, 352.0], [168.666489, -45.029195, 367.3], [168.670994, -45.027436, 378.7], [168.675531, -45.025768, 395.2], [168.680032, -45.023997, 407.1], [168.684622, -45.022477, 425.9], [168.689197, -45.020914, 437.1], [168.693739, -45.019259, 456.9], [168.698332, -45.017746, 471.3], [168.702903, -45.016173, 482.0], [168.70751, -45.0147, 498.0], [168.712118, -45.013229, 514.2], [168.716765, -45.01187, 524.9], [168.721292, -45.010173, 539.5], [168.725868, -45.008614, 558.1], [168.730453, -45.007078, 573.1], [168.734973, -45.005359, 586.2], [168.739042, -45.00316, 600.2], [168.742982, -45.000868, 612.6], [168.746789, -44.998345, 627.3], [168.750623, -44.99587, 640.5], [168.754467, -44.993413, 656.3], [168.758451, -44.991196, 665.5], [168.762356, -44.988843, 682.8], [168.766188, -44.986364, 696.2], [168.770176, -44.984155, 704.1], [168.774047, -44.981744, 722.1], [168.77811, -44.979664, 731.9], [168.782138, -44.977525, 747.7], [168.786131, -44.975324, 757.4], [168.790185, -44.973229, 772.0], [168.794201, -44.971068, 781.5], [168.798133, -44.968762, 795.1], [168.802088, -44.966496, 804.9], [168.806094, -44.964318, 814.8], [168.810095, -44.96213, 825.8], [168.81401, -44.959794, 838.8], [168.817844, -44.957319, 847.5], [168.821815, -44.955082, 860.6], [168.8256, -44.952521, 873.6], [168.829594, -44.950322, 882.9], [168.83437, -44.949058, 894.6], [168.839321, -44.948154, 901.0], [168.844276, -44.947278, 908.9], [168.849197, -44.946199, 920.2], [168.854168, -44.945418, 930.5], [168.859142, -44.94465, 935.6], [168.86411, -44.943852, 945.6], [168.869126, -44.943341, 955.8], [168.874116, -44.942676, 965.1], [168.879099, -44.941963, 969.7], [168.884054, -44.94109, 978.0], [168.889075, -44.940605, 988.7], [168.894061, -44.939917, 995.5], [168.899027, -44.939101, 997.9], [168.903985, -44.938248, 1004.7], [168.908921, -44.937256, 1010.0], [168.913902, -44.936532, 1020.5], [168.918834, -44.935516, 1023.4], [168.923776, -44.934561, 1027.1], [168.928685, -44.93341, 1035.1], [168.933624, -44.932433, 1039.6], [168.938564, -44.931469, 1044.3], [168.943545, -44.930747, 1048.5], [168.948459, -44.929622, 1049.6], [168.95168, -44.9275, 1058.2], [168.954713, -44.924646, 1059.1], [168.957627, -44.921674, 1059.7], [168.960763, -44.918923, 1064.5], [168.963768, -44.916042, 1067.5], [168.966775, -44.913163, 1067.1], [168.97, -44.910501, 1072.1], [168.973036, -44.907651, 1071.6], [168.975923, -44.904653, 1074.5], [168.978965, -44.901808, 1078.0], [168.981864, -44.89882, 1075.4], [168.984755, -44.895826, 1073.6], [168.987611, -44.892795, 1071.3], [168.990473, -44.889771, 1058.4], [168.993295, -44.886707, 1042.7], [168.996184, -44.88371, 1030.3], [168.999046, -44.880685, 1019.3], [169.001884, -44.877637, 1004.7], [169.004762, -44.874629, 995.7], [169.007686, -44.871666, 980.2], [169.010143, -44.868605, 967.3], [169.012273, -44.865352, 955.1], [169.014603, -44.862224, 946.5], [169.016592, -44.858883, 933.0], [169.018839, -44.855702, 920.7], [169.021098, -44.85253, 905.6], [169.023277, -44.849308, 896.5], [169.025341, -44.846013, 885.3], [169.027482, -44.842766, 873.5], [169.029607, -44.83951, 857.4], [169.031666, -44.836213, 844.1], [169.033657, -44.832873, 831.8], [169.035772, -44.82961, 823.1], [169.037654, -44.826202, 810.2], [169.039532, -44.822792, 798.1], [169.04139, -44.819369, 786.7], [169.043334, -44.815999, 772.1], [169.045337, -44.812666, 756.2], [169.047254, -44.80928, 748.6], [169.049451, -44.806069, 732.3], [169.051412, -44.80271, 720.7], [169.053616, -44.799503, 706.4], [169.055629, -44.796177, 697.4], [169.057923, -44.793026, 682.4], [169.060075, -44.789775, 669.4], [169.062536, -44.786654, 658.1], [169.065093, -44.783604, 646.4], [169.067562, -44.780489, 636.3], [169.06989, -44.77727, 623.0], [169.072447, -44.77422, 607.5], [169.074778, -44.771003, 598.5], [169.076965, -44.767679, 584.0], [169.079245, -44.764425, 572.8], [169.08155, -44.761189, 559.2], [169.083713, -44.757847, 545.8], [169.086027, -44.754618, 534.4], [169.088215, -44.751295, 523.2], [169.090486, -44.748034, 508.2], [169.092853, -44.744843, 499.1], [169.095284, -44.7417, 484.9], [169.097613, -44.738481, 471.5], [169.100018, -44.735319, 460.2], [169.102527, -44.732234, 450.4], [169.10496, -44.729092, 435.7], [169.10732, -44.725897, 424.1], [169.109776, -44.722772, 413.5], [169.112436, -44.719798, 401.4], [169.114896, -44.716677, 384.0], [169.117106, -44.71337, 376.6], [169.119573, -44.710254, 362.5], [169.121884, -44.707022, 349.1], [169.124333, -44.703892, 334.3], [169.126556, -44.700595, 326.6], [169.128734, -44.697265, 314.4], [169.130899, -44.693925, 297.5]]}, "properties": {"kind": "track", "name": "Queenstown \u2192 Wanaka (Crown Range)", "day": 3, "mode": "drive", "times": ["2026-03-04T10:00:00+13:00", "2026-03-04T10:00:34.532374+13:00", "2026-03-04T10:01:09.064748+13:00", "2026-03-04T10:01:43.597122+13:00", "2026-03-04T10:02:18.129496+13:00", "2026-03-04T10:02:52.661871+13:00", "2026-03-04T10:03:27.194245+13:00", "2026-03-04T10:04:01.726619+13:00", "2026-03-04T10:04:36.258993+13:00", "2026-03-04T10:05:10.791367+13:00", "2026-03-04T10:05:45.323741+13:00", "2026-03-04T10:06:19.856115+13:00", "2026-03-04T10:06:54.388489+13:00", "2026-03-04T10:07:28.920863+13:00", "2026-03-04T10:08:03.453237+13:00", "2026-03-04T10:08:37.985612+13:00", "2026-03-04T10:09:12.517986+13:00", "2026-03-04T10:09:47.050360+13:00", "2026-03-04T10:10:21.582734+13:00", "2026-03-04T10:10:56.115108+13:00", "2026-03-04T10:11:30.647482+13:00", "2026-03-04T10:12:05.179856+13:00", "2026-03-04T10:12:39.712230+13:00", "2026-03-04T10:13:14.244604+13:00", "2026-03-04T10:13:48.776978+13:00", "2026-03-04T10:14:23.309353+13:00", "2026-03-04T10:14:57.841727+13:00", "2026-03-04T10:15:32.374101+13:00", "2026-03-04T10:16:06.906475+13:00", "2026-03-04T10:16:41.438849+13:00", "2026-03-04T10:17:15.971223+13:00", "2026-03-04T10:17:50.503597+13:00", "2026-03-04T10:18:25.035971+13:00", "2026-03-04T10:18:59.568345+13:00", "2026-03-04T10:19:34.100719+13:00", "2026-03-04T10:20:08.633094+13:00", "2026-03-04T10:20:43.165468+13:00", "2026-03-04T10:21:17.697842+13:00", "2026-03-04T10:21:52.230216+13:00", "2026-03-04T10:22:26.762590+13:00", "2026-03-04T10:23:01.294964+13:00", "2026-03-04T10:23:35.827338+13:00", "2026-03-04T10:24:10.359712+13:00", "2026-03-04T10:24:44.892086+13:00", "2026-03-04T10:25:19.424460+13:00", "2026-03-04T10:25:53.956835+13:00", "2026-03-04T10:26:28.489209+13:00", "2026-03-04T10:27:03.021583+13:00", "2026-03-04T10:27:37.553957+13:00", "2026-03-04T10:28:12.086331+13:00", "2026-03-04T10:28:46.618705+13:00", "2026-03-04T10:29:21.151079+13:00", "2026-03-04T10:29:55.683453+13:00", "2026-03-04T10:30:30.215827+13:00", "2026-03-04T10:31:04.748201+13:00", "2026-03-04T10:31:39.280576+13:00", "2026-03-04T10:32:13.812950+13:00", "2026-03-04T10:32:48.345324+13:00", "2026-03-04T10:33:22.877698+13:00", "2026-03-04T10:33:57.410072+13:00", "2026-03-04T10:34:31.942446+13:00", "2026-03-04T10:35:06.474820+13:00", "2026-03-04T10:35:41.007194+13:00", "2026-03-04T10:36:15.539568+13:00", "2026-03-04T10:36:50.071942+13:00", "2026-03-04T10:37:24.604317+13:00", "2026-03-04T10:37:59.136691+13:00", "2026-03-04T10:38:33.669065+13:00", "2026-03-04T10:39:08.201439+13:00", "2026-03-04T10:39:42.733813+13:00", "2026-03-04T10:40:17.266187+13:00", "2026-03-04T10:40:51.798561+13:00", "2026-03-04T10:41:26.330935+13:00", "2026-03-04T10:42:00.863309+13:00", "2026-03-04T10:42:35.395683+13:00", "2026-03-04T10:43:09.928058+13:00", "2026-03-04T10:43:44.460432+13:00", "2026-03-04T10:44:18.992806+13:00", "2026-03-04T10:44:53.525180+13:00", "2026-03-04T10:45:28.057554+13:00", "2026-03-04T10:46:02.589928+13:00", "2026-03-04T10:46:37.122302+13:00", "2026-03-04T10:47:11.654676+13:00", "2026-03-04T10:47:46.187050+13:00", "2026-03-04T10:48:20.719424+13:00", "2026-03-04T10:48:55.251799+13:00", "2026-03-04T10:49:29.784173+13:00", "2026-03-04T10:50:04.316547+13:00", "2026-03-04T10:50:38.848921+13:00", "2026-03-04T10:51:13.381295+13:00", "2026-03-04T10:51:47.913669+13:00", "2026-03-04T10:52:22.446043+13:00", "2026-03-04T10:52:56.978417+13:00", "2026-03-04T10:53:31.510791+13:00", "2026-03-04T10:54:06.043165+13:00", "2026-03-04T10:54:40.575540+13:00", "2026-03-04T10:55:15.107914+13:00", "2026-03-04T10:55:49.640288+13:00", "2026-03-04T10:56:24.172662+13:00", "2026-03-04T10:56:58.705036+13:00", "2026-03-04T10:57:33.237410+13:00", "2026-03-04T10:58:07.769784+13:00", "2026-03-04T10:58:42.302158+13:00", "2026-03-04T10:59:16.834532+13:00", "2026-03-04T10:59:51.366906+13:00", "2026-03-04T11:00:25.899281+13:00", "2026-03-04T11:01:00.431655+13:00", "2026-03-04T11:01:34.964029+13:00", "2026-03-04T11:02:09.496403+13:00", "2026-03-04T11:02:44.028777+13:00", "2026-03-04T11:03:18.561151+13:00", "2026-03-04T11:03:53.093525+13:00", "2026-03-04T11:04:27.625899+13:00", "2026-03-04T11:05:02.158273+13:00", "2026-03-04T11:05:36.690647+13:00", "2026-03-04T11:06:11.223022+13:00", "2026-03-04T11:06:45.755396+13:00", "2026-03-04T11:07:20.287770+13:00", "2026-03-04T11:07:54.820144+13:00", "2026-03-04T11:08:29.352518+13:00", "2026-03-04T11:09:03.884892+13:00", "2026-03-04T11:09:38.417266+13:00", "2026-03-04T11:10:12.949640+13:00", "2026-03-04T11:10:47.482014+13:00", "2026-03-04T11:11:22.014388+13:00", "2026-03-04T11:11:56.546763+13:00", "2026-03-04T11:12:31.079137+13:00", "2026-03-04T11:13:05.611511+13:00", "2026-03-04T11:13:40.143885+13:00", "2026-03-04T11:14:14.676259+13:00", "2026-03-04T11:14:49.208633+13:00", "2026-03-04T11:15:23.741007+13:00", "2026-03-04T11:15:58.273381+13:00", "2026-03-04T11:16:32.805755+13:00", "2026-03-04T11:17:07.338129+13:00", "2026-03-04T11:17:41.870504+13:00", "2026-03-04T11:18:16.402878+13:00", "2026-03-04T11:18:50.935252+13:00", "2026-03-04T11:19:25.467626+13:00", "2026-03-04T11:20:00+13:00"]}}, {"type": "Feature", "geometry": {"type": "LineString", "coordinates": [[169.131006, -44.69402, 278.5], [169.130451, -44.694233, 280.1], [169.129888, -44.694415, 278.9], [169.129313, -44.694554, 279.0], [169.128724, -44.694646, 280.1], [169.128135, -44.694737, 280.1], [169.127568, -44.694905, 279.1], [169.126999, -44.695066, 281.9], [169.126447, -44.695288, 278.4], [169.125887, -44.695482, 278.2], [169.12534, -44.695719, 281.6], [169.124772, -44.695887, 278.1], [169.124192, -44.69601, 280.0], [169.123613, -44.696118, 281.6], [169.123033, -44.69623, 282.5], [169.122476, -44.696408, 280.8], [169.121935, -44.696633, 282.2], [169.121402, -44.696885, 277.9], [169.120857, -44.6971, 279.7], [169.120314, -44.697322, 278.6], [169.119746, -44.697466, 280.0], [169.119174, -44.697602, 279.7], [169.118593, -44.697707, 282.0], [169.118027, -44.69786, 282.2], [169.117492, -44.698105, 280.7], [169.11695, -44.698328, 279.8], [169.116419, -44.698584, 281.8], [169.115884, -44.698831, 279.7], [169.115326, -44.699006, 280.9], [169.114745, -44.699112, 279.9], [169.114164, -44.699218, 277.4], [169.113591, -44.69935, 282.4], [169.113039, -44.699543, 281.3], [169.112501, -44.69978, 278.0], [169.112036, -44.699982, 279.6], [169.112568, -44.699728, 280.1], [169.113123, -44.699543, 279.2], [169.113687, -44.699384, 279.5], [169.114263, -44.699262, 280.6], [169.11483, -44.699114, 280.9], [169.115408, -44.698997, 277.6], [169.115943, -44.698754, 278.7], [169.116477, -44.698505, 280.9], [169.117006, -44.698243, 282.2], [169.11756, -44.698054, 280.5], [169.118125, -44.697895, 279.1], [169.118689, -44.697728, 281.2], [169.119282, -44.697654, 280.6], [169.119848, -44.697494, 278.9], [169.120418, -44.697348, 281.7], [169.120957, -44.6971, 281.0], [169.121496, -44.696854, 281.4], [169.122043, -44.696633, 280.2], [169.122602, -44.696451, 279.5], [169.12318, -44.696332, 279.2], [169.123766, -44.696235, 278.3], [169.124332, -44.696075, 279.9], [169.124912, -44.695962, 277.8], [169.125467, -44.695764, 282.1], [169.126007, -44.695523, 281.6]]}, "properties": {"kind": "track", "name": "Wanaka lakefront stroll", "day": 3, "mode": "hike", "times": ["2026-03-04T17:10:00+13:00", "2026-03-04T17:10:40.677966+13:00", "2026-03-04T17:11:21.355932+13:00", "2026-03-04T17:12:02.033898+13:00", "2026-03-04T17:12:42.711864+13:00", "2026-03-04T17:13:23.389831+13:00", "2026-03-04T17:14:04.067797+13:00", "2026-03-04T17:14:44.745763+13:00", "2026-03-04T17:15:25.423729+13:00", "2026-03-04T17:16:06.101695+13:00", "2026-03-04T17:16:46.779661+13:00", "2026-03-04T17:17:27.457627+13:00", "2026-03-04T17:18:08.135593+13:00", "2026-03-04T17:18:48.813559+13:00", "2026-03-04T17:19:29.491525+13:00", "2026-03-04T17:20:10.169492+13:00", "2026-03-04T17:20:50.847458+13:00", "2026-03-04T17:21:31.525424+13:00", "2026-03-04T17:22:12.203390+13:00", "2026-03-04T17:22:52.881356+13:00", "2026-03-04T17:23:33.559322+13:00", "2026-03-04T17:24:14.237288+13:00", "2026-03-04T17:24:54.915254+13:00", "2026-03-04T17:25:35.593220+13:00", "2026-03-04T17:26:16.271186+13:00", "2026-03-04T17:26:56.949153+13:00", "2026-03-04T17:27:37.627119+13:00", "2026-03-04T17:28:18.305085+13:00", "2026-03-04T17:28:58.983051+13:00", "2026-03-04T17:29:39.661017+13:00", "2026-03-04T17:30:20.338983+13:00", "2026-03-04T17:31:01.016949+13:00", "2026-03-04T17:31:41.694915+13:00", "2026-03-04T17:32:22.372881+13:00", "2026-03-04T17:33:03.050847+13:00", "2026-03-04T17:33:43.728814+13:00", "2026-03-04T17:34:24.406780+13:00", "2026-03-04T17:35:05.084746+13:00", "2026-03-04T17:35:45.762712+13:00", "2026-03-04T17:36:26.440678+13:00", "2026-03-04T17:37:07.118644+13:00", "2026-03-04T17:37:47.796610+13:00", "2026-03-04T17:38:28.474576+13:00", "2026-03-04T17:39:09.152542+13:00", "2026-03-04T17:39:49.830508+13:00", "2026-03-04T17:40:30.508475+13:00", "2026-03-04T17:41:11.186441+13:00", "2026-03-04T17:41:51.864407+13:00", "2026-03-04T17:42:32.542373+13:00", "2026-03-04T17:43:13.220339+13:00", "2026-03-04T17:43:53.898305+13:00", "2026-03-04T17:44:34.576271+13:00", "2026-03-04T17:45:15.254237+13:00", "2026-03-04T17:45:55.932203+13:00", "2026-03-04T17:46:36.610169+13:00", "2026-03-04T17:47:17.288136+13:00", "2026-03-04T17:47:57.966102+13:00", "2026-03-04T17:48:38.644068+13:00", "2026-03-04T17:49:19.322034+13:00", "2026-03-04T17:50:00+13:00"]}}, {"type": "Feature", "geometry": {"type": "LineString", "coordinates": [[169.076962, -44.694014, 313.3], [169.076917, -44.693705, 317.7], [169.076701, -44.69346, 324.2], [169.076611, -44.693168, 332.1], [169.076428, -44.69291, 343.4], [169.076302, -44.692632, 347.5], [169.076217, -44.692337, 356.7], [169.076066, -44.692067, 363.4], [169.075972, -44.691777, 371.3], [169.075822, -44.691507, 380.0], [169.075734, -44.691214, 386.9], [169.075594, -44.69094, 395.6], [169.075487, -44.690654, 402.7], [169.075374, -44.69037, 414.1], [169.075332, -44.69006, 417.6], [169.075248, -44.689765, 426.7], [169.075093, -44.689497, 436.2], [169.075025, -44.689197, 439.8], [169.075002, -44.688879, 450.5], [169.074849, -44.68861, 457.7], [169.074855, -44.688282, 467.2], [169.074691, -44.688017, 471.5], [169.07462, -44.687717, 479.1], [169.074524, -44.687428, 486.1], [169.074495, -44.687112, 498.6], [169.074436, -44.686808, 503.3], [169.074337, -44.686519, 508.5], [169.074282, -44.686213, 519.0], [169.074171, -44.685929, 529.7], [169.074062, -44.685644, 531.6], [169.073647, -44.685392, 544.2], [169.073456, -44.685647, 551.6], [169.073245, -44.68589, 556.3], [169.073163, -44.686206, 566.4], [169.07294, -44.686442, 574.2], [169.072825, -44.68674, 577.7], [169.072643, -44.687, 586.9], [169.072582, -44.687327, 596.4], [169.072433, -44.687606, 603.9], [169.072234, -44.687855, 610.2], [169.07212, -44.688154, 616.5], [169.072001, -44.688449, 628.6], [169.071874, -44.68874, 632.3], [169.07179, -44.689055, 642.9], [169.071567, -44.689291, 650.1], [169.071459, -44.689593, 655.6], [169.071346, -44.689892, 666.1], [169.071192, -44.690167, 672.6], [169.0711, -44.690477, 678.3], [169.070993, -44.69078, 685.9], [169.070804, -44.691035, 696.3], [169.07028, -44.691104, 704.3], [169.070204, -44.690797, 711.5], [169.070041, -44.690531, 722.2], [169.069949, -44.690231, 724.1], [169.069762, -44.689976, 733.8], [169.069643, -44.689689, 743.2], [169.069517, -44.689405, 751.6], [169.069447, -44.689095, 755.1], [169.069309, -44.688817, 767.4], [169.069236, -44.688508, 774.9], [169.069095, -44.688232, 782.1], [169.068968, -44.687948, 790.5], [169.068922, -44.687626, 798.0], [169.068773, -44.687354, 802.8], [169.068711, -44.68704, 810.0], [169.068604, -44.686747, 822.1], [169.068444, -44.686479, 830.1], [169.068331, -44.686189, 833.4], [169.068196, -44.68591, 840.8], [169.068124, -44.685601, 852.0], [169.067951, -44.685339, 857.0], [169.067911, -44.685015, 864.9], [169.067703, -44.68477, 874.9], [169.067574, -44.684488, 880.5], [169.067177, -44.684298, 888.8], [169.066925, -44.684518, 899.1], [169.066721, -44.684779, 906.1], [169.066538, -44.685058, 909.4], [169.066327, -44.685313, 921.6], [169.066125, -44.685575, 926.3], [169.065888, -44.685809, 936.0], [169.065717, -44.686097, 943.4], [169.065537, -44.686378, 951.6], [169.065341, -44.686645, 955.4], [169.0652, -44.686958, 965.0], [169.065023, -44.687242, 972.2], [169.064833, -44.687514, 984.0], [169.064559, -44.687717, 989.8], [169.064395, -44.688011, 998.5], [169.064232, -44.688306, 1007.1], [169.063858, -44.68802, 1012.8], [169.063604, -44.687802, 1017.0], [169.063491, -44.687495, 1029.2], [169.063278, -44.687251, 1034.5], [169.063078, -44.686999, 1043.6], [169.062892, -44.686739, 1053.3], [169.062751, -44.686449, 1059.9], [169.062562, -44.68619, 1066.2], [169.062415, -44.685904, 1074.6], [169.062268, -44.685618, 1079.1], [169.062061, -44.685371, 1089.1], [169.06194, -44.685068, 1097.2], [169.0618, -44.684778, 1103.1], [169.06163, -44.684507, 1115.2], [169.061496, -44.684212, 1122.5], [169.061326, -44.683941, 1125.4], [169.061141, -44.68368, 1135.1], [169.060988, -44.683398, 1142.8], [169.060713, -44.683202, 1151.9], [169.060442, -44.683456, 1157.4], [169.06009, -44.683585, 1163.6], [169.059784, -44.683786, 1176.2], [169.059488, -44.684001, 1182.9], [169.059178, -44.684196, 1190.1], [169.058856, -44.684373, 1197.1], [169.058501, -44.684499, 1202.9], [169.058194, -44.684697, 1214.2], [169.057881, -44.684887, 1220.5], [169.0576, -44.685125, 1229.7], [169.057591, -44.685003, 1236.2], [169.05738, -44.684731, 1242.1], [169.05705, -44.684579, 1252.3], [169.056835, -44.684312, 1260.3], [169.056553, -44.684112, 1263.8], [169.056281, -44.683902, 1274.9], [169.056065, -44.683636, 1282.8], [169.055813, -44.683406, 1291.7], [169.055514, -44.683222, 1298.0], [169.055303, -44.682951, 1307.7], [169.05502, -44.682752, 1315.0], [169.054791, -44.682498, 1318.0], [169.054524, -44.682284, 1326.0], [169.054259, -44.682241, 1337.0], [169.053849, -44.682307, 1346.0], [169.053446, -44.682432, 1353.2], [169.053028, -44.682412, 1359.6], [169.052621, -44.6825, 1364.3], [169.052206, -44.682518, 1374.4], [169.051797, -44.682586, 1379.9], [169.051391, -44.682678, 1387.6], [169.050907, -44.682532, 1398.7], [169.050562, -44.682358, 1407.1], [169.050218, -44.682182, 1414.7], [169.0499, -44.681948, 1417.7], [169.049527, -44.681838, 1428.6], [169.049184, -44.681659, 1437.5], [169.048855, -44.681451, 1444.4], [169.04851, -44.681276, 1452.0], [169.04818, -44.681069, 1461.7], [169.048169, -44.681094, 1468.5], [169.048519, -44.681256, 1473.2], [169.04883, -44.681507, 1479.4], [169.049189, -44.681649, 1489.7], [169.049519, -44.681855, 1498.1], [169.049868, -44.68202, 1506.5], [169.050233, -44.682149, 1515.1], [169.05059, -44.682294, 1518.4], [169.050908, -44.682529, 1528.7], [169.051387, -44.682647, 1535.8], [169.0518, -44.682614, 1542.2], [169.052214, -44.68259, 1550.2], [169.052622, -44.682508, 1559.8], [169.053034, -44.682471, 1569.0], [169.053446, -44.682426, 1573.5], [169.05385, -44.682316, 1571.7], [169.054258, -44.68223, 1563.4], [169.054496, -44.682312, 1554.0], [169.054737, -44.682552, 1541.7], [169.055052, -44.68272, 1535.2], [169.055315, -44.682939, 1524.0], [169.055525, -44.683211, 1513.6], [169.055799, -44.683419, 1509.2], [169.056074, -44.683627, 1497.3], [169.056324, -44.683859, 1490.2], [169.056574, -44.684091, 1480.9], [169.056857, -44.684291, 1470.8], [169.057081, -44.684548, 1459.2], [169.057351, -44.684761, 1448.6], [169.0576, -44.684994, 1438.4], [169.057608, -44.685138, 1433.2], [169.057926, -44.684956, 1425.1], [169.058206, -44.684716, 1410.5], [169.058495, -44.684489, 1402.7], [169.058817, -44.684314, 1392.9], [169.059121, -44.684109, 1386.0], [169.059484, -44.683996, 1375.1], [169.059781, -44.683782, 1362.9], [169.060123, -44.683637, 1355.2], [169.060421, -44.683424, 1346.6], [169.060733, -44.683232, 1337.5], [169.06101, -44.683383, 1328.7], [169.061142, -44.683679, 1321.5], [169.061349, -44.683926, 1308.0], [169.061458, -44.684237, 1301.7], [169.061627, -44.684508, 1291.6], [169.061755, -44.684806, 1282.8], [169.061916, -44.685084, 1272.5], [169.062133, -44.685324, 1262.6], [169.062273, -44.685615, 1254.0], [169.062424, -44.685898, 1240.4], [169.062567, -44.686187, 1236.6], [169.062766, -44.686439, 1226.1], [169.062918, -44.686722, 1216.3], [169.063094, -44.686989, 1203.6], [169.063277, -44.687252, 1196.9], [169.063481, -44.687501, 1184.6], [169.063651, -44.687772, 1174.5], [169.063867, -44.688014, 1165.6], [169.06426, -44.688329, 1157.4], [169.06444, -44.688048, 1150.2], [169.064607, -44.687757, 1141.3], [169.064749, -44.687445, 1132.5], [169.064955, -44.687185, 1118.2], [169.065199, -44.686958, 1109.7], [169.065371, -44.68667, 1103.0], [169.065541, -44.686381, 1091.5], [169.065765, -44.686137, 1085.6], [169.065941, -44.685853, 1072.9], [169.066096, -44.685551, 1065.7], [169.066304, -44.685294, 1056.1], [169.066507, -44.685032, 1043.6], [169.066743, -44.684797, 1036.4], [169.06695, -44.684539, 1029.5], [169.067152, -44.684277, 1016.0], [169.067585, -44.684482, 1009.1], [169.067726, -44.684759, 997.5], [169.067917, -44.685012, 990.8], [169.067967, -44.685332, 977.3], [169.068128, -44.685599, 969.4], [169.068276, -44.685872, 962.7], [169.068385, -44.686164, 953.2], [169.068423, -44.686489, 940.6], [169.068577, -44.68676, 931.6], [169.068655, -44.687066, 921.6], [169.068766, -44.687357, 911.9], [169.068879, -44.687647, 906.8], [169.069004, -44.687931, 892.7], [169.069103, -44.688228, 885.9], [169.069173, -44.688538, 877.0], [169.069317, -44.688813, 867.4], [169.06938, -44.689127, 856.6], [169.06957, -44.68938, 845.3], [169.069698, -44.689663, 835.4], [169.069799, -44.689959, 831.5], [169.069912, -44.690248, 822.1], [169.070096, -44.690504, 809.9], [169.070159, -44.690818, 803.4], [169.070313, -44.691088, 792.1], [169.070759, -44.691009, 779.4], [169.070936, -44.690747, 772.6], [169.07106, -44.690454, 765.6], [169.071176, -44.690158, 751.6], [169.071314, -44.689873, 742.2], [169.071442, -44.689583, 737.7], [169.071628, -44.689326, 725.3], [169.071702, -44.689005, 718.7], [169.071834, -44.688717, 708.8], [169.07206, -44.688483, 697.5], [169.072182, -44.688189, 690.6], [169.072297, -44.687891, 681.2], [169.072405, -44.68759, 668.8], [169.072501, -44.687282, 661.5], [169.072691, -44.687026, 648.2], [169.072871, -44.686766, 638.6], [169.072982, -44.686466, 629.7], [169.073161, -44.686205, 623.2], [169.073252, -44.685894, 612.7], [169.073414, -44.685623, 601.0], [169.073565, -44.685346, 595.9], [169.074084, -44.685635, 584.2], [169.074095, -44.685957, 575.7], [169.074197, -44.686245, 563.1], [169.0743, -44.686533, 554.3], [169.074378, -44.68683, 544.8], [169.074516, -44.687104, 539.7], [169.074547, -44.687419, 528.9], [169.074595, -44.687727, 519.1], [169.074752, -44.687994, 506.1], [169.074767, -44.688315, 498.2], [169.074881, -44.688598, 489.9], [169.075018, -44.688873, 481.7], [169.075037, -44.689192, 468.8], [169.075192, -44.68946, 460.4], [169.075248, -44.689765, 450.6], [169.075287, -44.690077, 440.8], [169.075452, -44.690341, 434.0], [169.075515, -44.690643, 424.3], [169.075626, -44.690928, 414.8], [169.075756, -44.691205, 403.5], [169.075821, -44.691507, 397.3], [169.076008, -44.691763, 383.8], [169.07608, -44.692062, 378.1], [169.076162, -44.692358, 367.9], [169.076287, -44.692637, 358.4], [169.076466, -44.692896, 349.1], [169.076558, -44.693188, 338.2], [169.076733, -44.693448, 327.5], [169.076832, -44.693737, 320.9], [169.076954, -44.694017, 311.1]]}, "properties": {"kind": "track", "name": "Roys Peak return", "day": 4, "mode": "hike", "times": ["2026-03-05T08:00:00+13:00", "2026-03-05T08:01:18.260870+13:00", "2026-03-05T08:02:36.521739+13:00", "2026-03-05T08:03:54.782609+13:00", "2026-03-05T08:05:13.043478+13:00", "2026-03-05T08:06:31.304348+13:00", "2026-03-05T08:07:49.565217+13:00", "2026-03-05T08:09:07.826087+13:00", "2026-03-05T08:10:26.086957+13:00", "2026-03-05T08:11:44.347826+13:00", "2026-03-05T08:13:02.608696+13:00", "2026-03-05T08:14:20.869565+13:00", "2026-03-05T08:15:39.130435+13:00", "2026-03-05T08:16:57.391304+13:00", "2026-03-05T08:18:15.652174+13:00", "2026-03-05T08:19:33.913043+13:00", "2026-03-05T08:20:52.173913+13:00", "2026-03-05T08:22:10.434783+13:00", "2026-03-05T08:23:28.695652+13:00", "2026-03-05T08:24:46.956522+13:00", "2026-03-05T08:26:05.217391+13:00", "2026-03-05T08:27:23.478261+13:00", "2026-03-05T08:28:41.739130+13:00", "2026-03-05T08:30:00+13:00", "2026-03-05T08:31:18.260870+13:00", "2026-03-05T08:32:36.521739+13:00", "2026-03-05T08:33:54.782609+13:00", "2026-03-05T08:35:13.043478+13:00", "2026-03-05T08:36:31.304348+13:00", "2026-03-05T08:37:49.565217+13:00", "2026-03-05T08:39:07.826087+13:00", "2026-03-05T08:40:26.086957+13:00", "2026-03-05T08:41:44.347826+13:00", "2026-03-05T08:43:02.608696+13:00", "2026-03-05T08:44:20.869565+13:00", "2026-03-05T08:45:39.130435+13:00", "2026-03-05T08:46:57.391304+13:00", "2026-03-05T08:48:15.652174+13:00", "2026-03-05T08:49:33.913043+13:00", "2026-03-05T08:50:52.173913+13:00", "2026-03-05T08:52:10.434783+13:00", "2026-03-05T08:53:28.695652+13:00", "2026-03-05T08:54:46.956522+13:00", "2026-03-05T08:56:05.217391+13:00", "2026-03-05T08:57:23.478261+13:00", "2026-03-05T08:58:41.739130+13:00", "2026-03-05T09:00:00+13:00", "2026-03-05T09:01:18.260870+13:00", "2026-03-05T09:02:36.521739+13:00", "2026-03-05T09:03:54.782609+13:00", "2026-03-05T09:05:13.043478+13:00", "2026-03-05T09:06:31.304348+13:00", "2026-03-05T09:07:49.565217+13:00", "2026-03-05T09:09:07.826087+13:00", "2026-03-05T09:10:26.086957+13:00", "2026-03-05T09:11:44.347826+13:00", "2026-03-05T09:13:02.608696+13:00", "2026-03-05T09:14:20.869565+13:00", "2026-03-05T09:15:39.130435+13:00", "2026-03-05T09:16:57.391304+13:00", "2026-03-05T09:18:15.652174+13:00", "2026-03-05T09:19:33.913043+13:00", "2026-03-05T09:20:52.173913+13:00", "2026-03-05T09:22:10.434783+13:00", "2026-03-05T09:23:28.695652+13:00", "2026-03-05T09:24:46.956522+13:00", "2026-03-05T09:26:05.217391+13:00", "2026-03-05T09:27:23.478261+13:00", "2026-03-05T09:28:41.739130+13:00", "2026-03-05T09:30:00+13:00", "2026-03-05T09:31:18.260870+13:00", "2026-03-05T09:32:36.521739+13:00", "2026-03-05T09:33:54.782609+13:00", "2026-03-05T09:35:13.043478+13:00", "2026-03-05T09:36:31.304348+13:00", "2026-03-05T09:37:49.565217+13:00", "2026-03-05T09:39:07.826087+13:00", "2026-03-05T09:40:26.086957+13:00", "2026-03-05T09:41:44.347826+13:00", "2026-03-05T09:43:02.608696+13:00", "2026-03-05T09:44:20.869565+13:00", "2026-03-05T09:45:39.130435+13:00", "2026-03-05T09:46:57.391304+13:00", "2026-03-05T09:48:15.652174+13:00", "2026-03-05T09:49:33.913043+13:00", "2026-03-05T09:50:52.173913+13:00", "2026-03-05T09:52:10.434783+13:00", "2026-03-05T09:53:28.695652+13:00", "2026-03-05T09:54:46.956522+13:00", "2026-03-05T09:56:05.217391+13:00", "2026-03-05T09:57:23.478261+13:00", "2026-03-05T09:58:41.739130+13:00", "2026-03-05T10:00:00+13:00", "2026-03-05T10:01:18.260870+13:00", "2026-03-05T10:02:36.521739+13:00", "2026-03-05T10:03:54.782609+13:00", "2026-03-05T10:05:13.043478+13:00", "2026-03-05T10:06:31.304348+13:00", "2026-03-05T10:07:49.565217+13:00", "2026-03-05T10:09:07.826087+13:00", "2026-03-05T10:10:26.086957+13:00", "2026-03-05T10:11:44.347826+13:00", "2026-03-05T10:13:02.608696+13:00", "2026-03-05T10:14:20.869565+13:00", "2026-03-05T10:15:39.130435+13:00", "2026-03-05T10:16:57.391304+13:00", "2026-03-05T10:18:15.652174+13:00", "2026-03-05T10:19:33.913043+13:00", "2026-03-05T10:20:52.173913+13:00", "2026-03-05T10:22:10.434783+13:00", "2026-03-05T10:23:28.695652+13:00", "2026-03-05T10:24:46.956522+13:00", "2026-03-05T10:26:05.217391+13:00", "2026-03-05T10:27:23.478261+13:00", "2026-03-05T10:28:41.739130+13:00", "2026-03-05T10:30:00+13:00", "2026-03-05T10:31:18.260870+13:00", "2026-03-05T10:32:36.521739+13:00", "2026-03-05T10:33:54.782609+13:00", "2026-03-05T10:35:13.043478+13:00", "2026-03-05T10:36:31.304348+13:00", "2026-03-05T10:37:49.565217+13:00", "2026-03-05T10:39:07.826087+13:00", "2026-03-05T10:40:26.086957+13:00", "2026-03-05T10:41:44.347826+13:00", "2026-03-05T10:43:02.608696+13:00", "2026-03-05T10:44:20.869565+13:00", "2026-03-05T10:45:39.130435+13:00", "2026-03-05T10:46:57.391304+13:00", "2026-03-05T10:48:15.652174+13:00", "2026-03-05T10:49:33.913043+13:00", "2026-03-05T10:50:52.173913+13:00", "2026-03-05T10:52:10.434783+13:00", "2026-03-05T10:53:28.695652+13:00", "2026-03-05T10:54:46.956522+13:00", "2026-03-05T10:56:05.217391+13:00", "2026-03-05T10:57:23.478261+13:00", "2026-03-05T10:58:41.739130+13:00", "2026-03-05T11:00:00+13:00", "2026-03-05T11:01:18.260870+13:00", "2026-03-05T11:02:36.521739+13:00", "2026-03-05T11:03:54.782609+13:00", "2026-03-05T11:05:13.043478+13:00", "2026-03-05T11:06:31.304348+13:00", "2026-03-05T11:07:49.565217+13:00", "2026-03-05T11:09:07.826087+13:00", "2026-03-05T11:10:26.086957+13:00", "2026-03-05T11:11:44.347826+13:00", "2026-03-05T11:13:02.608696+13:00", "2026-03-05T11:14:20.869565+13:00", "2026-03-05T11:15:39.130435+13:00", "2026-03-05T11:16:57.391304+13:00", "2026-03-05T11:18:15.652174+13:00", "2026-03-05T11:19:33.913043+13:00", "2026-03-05T11:20:52.173913+13:00", "2026-03-05T11:22:10.434783+13:00", "2026-03-05T11:23:28.695652+13:00", "2026-03-05T11:24:46.956522+13:00", "2026-03-05T11:26:05.217391+13:00", "2026-03-05T11:27:23.478261+13:00", "2026-03-05T11:28:41.739130+13:00", "2026-03-05T11:30:00+13:00", "2026-03-05T11:31:18.260870+13:00", "2026-03-05T11:32:36.521739+13:00", "2026-03-05T11:33:54.782609+13:00", "2026-03-05T11:35:13.043478+13:00", "2026-03-05T11:36:31.304348+13:00", "2026-03-05T11:37:49.565217+13:00", "2026-03-05T11:39:07.826087+13:00", "2026-03-05T11:40:26.086957+13:00", "2026-03-05T11:41:44.347826+13:00", "2026-03-05T11:43:02.608696+13:00", "2026-03-05T11:44:20.869565+13:00", "2026-03-05T11:45:39.130435+13:00", "2026-03-05T11:46:57.391304+13:00", "2026-03-05T11:48:15.652174+13:00", "2026-03-05T11:49:33.913043+13:00", "2026-03-05T11:50:52.173913+13:00", "2026-03-05T11:52:10.434783+13:00", "2026-03-05T11:53:28.695652+13:00", "2026-03-05T11:54:46.956522+13:00", "2026-03-05T11:56:05.217391+13:00", "2026-03-05T11:57:23.478261+13:00", "2026-03-05T11:58:41.739130+13:00", "2026-03-05T12:00:00+13:00", "2026-03-05T12:01:18.260870+13:00", "2026-03-05T12:02:36.521739+13:00", "2026-03-05T12:03:54.782609+13:00", "2026-03-05T12:05:13.043478+13:00", "2026-03-05T12:06:31.304348+13:00", "2026-03-05T12:07:49.565217+13:00", "2026-03-05T12:09:07.826087+13:00", "2026-03-05T12:10:26.086957+13:00", "2026-03-05T12:11:44.347826+13:00", "2026-03-05T12:13:02.608696+13:00", "2026-03-05T12:14:20.869565+13:00", "2026-03-05T12:15:39.130435+13:00", "2026-03-05T12:16:57.391304+13:00", "2026-03-05T12:18:15.652174+13:00", "2026-03-05T12:19:33.913043+13:00", "2026-03-05T12:20:52.173913+13:00", "2026-03-05T12:22:10.434783+13:00", "2026-03-05T12:23:28.695652+13:00", "2026-03-05T12:24:46.956522+13:00", "2026-03-05T12:26:05.217391+13:00", "2026-03-05T12:27:23.478261+13:00", "2026-03-05T12:28:41.739130+13:00", "2026-03-05T12:30:00+13:00", "2026-03-05T12:31:18.260870+13:00", "2026-03-05T12:32:36.521739+13:00", "2026-03-05T12:33:54.782609+13:00", "2026-03-05T12:35:13.043478+13:00", "2026-03-05T12:36:31.304348+13:00", "2026-03-05T12:37:49.565217+13:00", "2026-03-05T12:39:07.826087+13:00", "2026-03-05T12:40:26.086957+13:00", "2026-03-05T12:41:44.347826+13:00", "2026-03-05T12:43:02.608696+13:00", "2026-03-05T12:44:20.869565+13:00", "2026-03-05T12:45:39.130435+13:00", "2026-03-05T12:46:57.391304+13:00", "2026-03-05T12:48:15.652174+13:00", "2026-03-05T12:49:33.913043+13:00", "2026-03-05T12:50:52.173913+13:00", "2026-03-05T12:52:10.434783+13:00", "2026-03-05T12:53:28.695652+13:00", "2026-03-05T12:54:46.956522+13:00", "2026-03-05T12:56:05.217391+13:00", "2026-03-05T12:57:23.478261+13:00", "2026-03-05T12:58:41.739130+13:00", "2026-03-05T13:00:00+13:00", "2026-03-05T13:01:18.260870+13:00", "2026-03-05T13:02:36.521739+13:00", "2026-03-05T13:03:54.782609+13:00", "2026-03-05T13:05:13.043478+13:00", "2026-03-05T13:06:31.304348+13:00", "2026-03-05T13:07:49.565217+13:00", "2026-03-05T13:09:07.826087+13:00", "2026-03-05T13:10:26.086957+13:00", "2026-03-05T13:11:44.347826+13:00", "2026-03-05T13:13:02.608696+13:00", "2026-03-05T13:14:20.869565+13:00", "2026-03-05T13:15:39.130435+13:00", "2026-03-05T13:16:57.391304+13:00", "2026-03-05T13:18:15.652174+13:00", "2026-03-05T13:19:33.913043+13:00", "2026-03-05T13:20:52.173913+13:00", "2026-03-05T13:22:10.434783+13:00", "2026-03-05T13:23:28.695652+13:00", "2026-03-05T13:24:46.956522+13:00", "2026-03-05T13:26:05.217391+13:00", "2026-03-05T13:27:23.478261+13:00", "2026-03-05T13:28:41.739130+13:00", "2026-03-05T13:30:00+13:00", "2026-03-05T13:31:18.260870+13:00", "2026-03-05T13:32:36.521739+13:00", "2026-03-05T13:33:54.782609+13:00", "2026-03-05T13:35:13.043478+13:00", "2026-03-05T13:36:31.304348+13:00", "2026-03-05T13:37:49.565217+13:00", "2026-03-05T13:39:07.826087+13:00", "2026-03-05T13:40:26.086957+13:00", "2026-03-05T13:41:44.347826+13:00", "2026-03-05T13:43:02.608696+13:00", "2026-03-05T13:44:20.869565+13:00", "2026-03-05T13:45:39.130435+13:00", "2026-03-05T13:46:57.391304+13:00", "2026-03-05T13:48:15.652174+13:00", "2026-03-05T13:49:33.913043+13:00", "2026-03-05T13:50:52.173913+13:00", "2026-03-05T13:52:10.434783+13:00", "2026-03-05T13:53:28.695652+13:00", "2026-03-05T13:54:46.956522+13:00", "2026-03-05T13:56:05.217391+13:00", "2026-03-05T13:57:23.478261+13:00", "2026-03-05T13:58:41.739130+13:00", "2026-03-05T14:00:00+13:00", "2026-03-05T14:01:18.260870+13:00", "2026-03-05T14:02:36.521739+13:00", "2026-03-05T14:03:54.782609+13:00", "2026-03-05T14:05:13.043478+13:00", "2026-03-05T14:06:31.304348+13:00", "2026-03-05T14:07:49.565217+13:00", "2026-03-05T14:09:07.826087+13:00", "2026-03-05T14:10:26.086957+13:00", "2026-03-05T14:11:44.347826+13:00", "2026-03-05T14:13:02.608696+13:00", "2026-03-05T14:14:20.869565+13:00", "2026-03-05T14:15:39.130435+13:00", "2026-03-05T14:16:57.391304+13:00", "2026-03-05T14:18:15.652174+13:00", "2026-03-05T14:19:33.913043+13:00", "2026-03-05T14:20:52.173913+13:00", "2026-03-05T14:22:10.434783+13:00", "2026-03-05T14:23:28.695652+13:00", "2026-03-05T14:24:46.956522+13:00", "2026-03-05T14:26:05.217391+13:00", "2026-03-05T14:27:23.478261+13:00", "2026-03-05T14:28:41.739130+13:00", "2026-03-05T14:30:00+13:00"]}}, {"type": "Feature", "geometry": {"type": "LineString", "coordinates": [[169.131073, -44.693987, 289.7], [169.131894, -44.697897, 289.0], [169.132634, -44.701822, 288.2], [169.133579, -44.70571, 289.0], [169.134156, -44.709664, 288.8], [169.134826, -44.713601, 286.5], [169.135189, -44.717593, 284.3], [169.135706, -44.721557, 287.5], [169.136454, -44.725481, 281.1], [169.137064, -44.729429, 280.1], [169.137641, -44.733383, 283.7], [169.138518, -44.737283, 284.2], [169.139354, -44.74119, 280.1], [169.140332, -44.745072, 279.1], [169.141186, -44.748976, 281.4], [169.141896, -44.752906, 279.3], [169.142705, -44.756819, 277.7], [169.143351, -44.76076, 275.7], [169.143806, -44.764736, 276.1], [169.144408, -44.768685, 276.4], [169.144852, -44.772663, 271.3], [169.145363, -44.776629, 272.3], [169.146152, -44.780545, 273.0], [169.146847, -44.784477, 273.9], [169.147596, -44.7884, 270.2], [169.14848, -44.792299, 273.0], [169.149483, -44.796177, 267.2], [169.150339, -44.800173, 268.3], [169.150035, -44.804135, 270.3], [169.149471, -44.808071, 265.4], [169.149012, -44.812017, 263.6], [169.148579, -44.815966, 266.8], [169.14786, -44.819887, 266.3], [169.147366, -44.82383, 262.5], [169.146798, -44.827765, 265.4], [169.14632, -44.83171, 262.5], [169.146031, -44.835673, 263.6], [169.145876, -44.83965, 259.8], [169.145633, -44.843618, 261.1], [169.145364, -44.847583, 258.1], [169.145079, -44.851547, 259.5], [169.144779, -44.85551, 256.6], [169.144328, -44.859457, 259.7], [169.144021, -44.863418, 258.6], [169.143394, -44.867348, 255.0], [169.142773, -44.871278, 257.4], [169.142313, -44.875225, 254.8], [169.141773, -44.879163, 251.9], [169.141272, -44.883105, 250.1], [169.140944, -44.887065, 253.0], [169.140725, -44.891035, 252.8], [169.14048, -44.895003, 251.1], [169.14039, -44.898986, 251.6], [169.1417, -44.902587, 251.1], [169.143612, -44.906298, 245.3], [169.145371, -44.910086, 245.0], [169.147209, -44.913834, 248.5], [169.148955, -44.917629, 242.7], [169.150622, -44.921463, 242.5], [169.15225, -44.925316, 244.6], [169.154114, -44.929051, 245.1], [169.155902, -44.932825, 243.6], [169.157975, -44.936456, 241.6], [169.15994, -44.940141, 242.7], [169.161951, -44.943803, 242.4], [169.163906, -44.947492, 241.5], [169.166078, -44.951074, 235.8], [169.167974, -44.954793, 237.2], [169.169616, -44.95864, 237.1], [169.171341, -44.962445, 238.2], [169.173112, -44.966227, 236.6], [169.174774, -44.970063, 234.4], [169.176511, -44.973862, 231.9], [169.178359, -44.977605, 232.6], [169.180171, -44.981367, 234.7], [169.182229, -44.985005, 233.0], [169.184353, -44.98861, 229.4], [169.186287, -44.992311, 229.8], [169.188257, -44.995993, 226.5], [169.190213, -44.999683, 230.5], [169.192145, -45.003384, 226.6], [169.193835, -45.007207, 225.3], [169.195603, -45.01099, 227.5], [169.197321, -45.014799, 225.6], [169.199068, -45.018593, 222.5], [169.199196, -45.02228, 225.9], [169.198254, -45.026178, 222.3], [169.197336, -45.030082, 223.3], [169.196607, -45.034027, 222.1], [169.195997, -45.037999, 222.5]]}, "properties": {"kind": "track", "name": "Wanaka \u2192 Cromwell", "day": 5, "mode": "drive", "times": ["2026-03-06T10:00:00+13:00", "2026-03-06T10:00:26.966292+13:00", "2026-03-06T10:00:53.932584+13:00", "2026-03-06T10:01:20.898876+13:00", "2026-03-06T10:01:47.865169+13:00", "2026-03-06T10:02:14.831461+13:00", "2026-03-06T10:02:41.797753+13:00", "2026-03-06T10:03:08.764045+13:00", "2026-03-06T10:03:35.730337+13:00", "2026-03-06T10:04:02.696629+13:00", "2026-03-06T10:04:29.662921+13:00", "2026-03-06T10:04:56.629213+13:00", "2026-03-06T10:05:23.595506+13:00", "2026-03-06T10:05:50.561798+13:00", "2026-03-06T10:06:17.528090+13:00", "2026-03-06T10:06:44.494382+13:00", "2026-03-06T10:07:11.460674+13:00", "2026-03-06T10:07:38.426966+13:00", "2026-03-06T10:08:05.393258+13:00", "2026-03-06T10:08:32.359551+13:00", "2026-03-06T10:08:59.325843+13:00", "2026-03-06T10:09:26.292135+13:00", "2026-03-06T10:09:53.258427+13:00", "2026-03-06T10:10:20.224719+13:00", "2026-03-06T10:10:47.191011+13:00", "2026-03-06T10:11:14.157303+13:00", "2026-03-06T10:11:41.123596+13:00", "2026-03-06T10:12:08.089888+13:00", "2026-03-06T10:12:35.056180+13:00", "2026-03-06T10:13:02.022472+13:00", "2026-03-06T10:13:28.988764+13:00", "2026-03-06T10:13:55.955056+13:00", "2026-03-06T10:14:22.921348+13:00", "2026-03-06T10:14:49.887640+13:00", "2026-03-06T10:15:16.853933+13:00", "2026-03-06T10:15:43.820225+13:00", "2026-03-06T10:16:10.786517+13:00", "2026-03-06T10:16:37.752809+13:00", "2026-03-06T10:17:04.719101+13:00", "2026-03-06T10:17:31.685393+13:00", "2026-03-06T10:17:58.651685+13:00", "2026-03-06T10:18:25.617978+13:00", "2026-03-06T10:18:52.584270+13:00", "2026-03-06T10:19:19.550562+13:00", "2026-03-06T10:19:46.516854+13:00", "2026-03-06T10:20:13.483146+13:00", "2026-03-06T10:20:40.449438+13:00", "2026-03-06T10:21:07.415730+13:00", "2026-03-06T10:21:34.382022+13:00", "2026-03-06T10:22:01.348315+13:00", "2026-03-06T10:22:28.314607+13:00", "2026-03-06T10:22:55.280899+13:00", "2026-03-06T10:23:22.247191+13:00", "2026-03-06T10:23:49.213483+13:00", "2026-03-06T10:24:16.179775+13:00", "2026-03-06T10:24:43.146067+13:00", "2026-03-06T10:25:10.112360+13:00", "2026-03-06T10:25:37.078652+13:00", "2026-03-06T10:26:04.044944+13:00", "2026-03-06T10:26:31.011236+13:00", "2026-03-06T10:26:57.977528+13:00", "2026-03-06T10:27:24.943820+13:00", "2026-03-06T10:27:51.910112+13:00", "2026-03-06T10:28:18.876404+13:00", "2026-03-06T10:28:45.842697+13:00", "2026-03-06T10:29:12.808989+13:00", "2026-03-06T10:29:39.775281+13:00", "2026-03-06T10:30:06.741573+13:00", "2026-03-06T10:30:33.707865+13:00", "2026-03-06T10:31:00.674157+13:00", "2026-03-06T10:31:27.640449+13:00", "2026-03-06T10:31:54.606742+13:00", "2026-03-06T10:32:21.573034+13:00", "2026-03-06T10:32:48.539326+13:00", "2026-03-06T10:33:15.505618+13:00", "2026-03-06T10:33:42.471910+13:00", "2026-03-06T10:34:09.438202+13:00", "2026-03-06T10:34:36.404494+13:00", "2026-03-06T10:35:03.370787+13:00", "2026-03-06T10:35:30.337079+13:00", "2026-03-06T10:35:57.303371+13:00", "2026-03-06T10:36:24.269663+13:00", "2026-03-06T10:36:51.235955+13:00", "2026-03-06T10:37:18.202247+13:00", "2026-03-06T10:37:45.168539+13:00", "2026-03-06T10:38:12.134831+13:00", "2026-03-06T10:38:39.101124+13:00", "2026-03-06T10:39:06.067416+13:00", "2026-03-06T10:39:33.033708+13:00", "2026-03-06T10:40:00+13:00"]}}, {"type": "Feature", "geometry": {"type": "LineString", "coordinates": [[169.195997, -45.03801, 220.9], [169.190882, -45.036576, 218.5], [169.185692, -45.035403, 225.3], [169.180583, -45.03395, 225.5], [169.1755, -45.032407, 227.3], [169.170434, -45.030808, 227.8], [169.165388, -45.02914, 227.9], [169.160312, -45.027572, 229.9], [169.155241, -45.025987, 231.2], [169.150195, -45.024321, 231.7], [169.145151, -45.022644, 233.4], [169.140054, -45.02115, 234.6], [169.134918, -45.019789, 238.6], [169.1298, -45.018368, 238.9], [169.124609, -45.017195, 240.2], [169.119445, -45.015929, 237.3], [169.11436, -45.014394, 238.9], [169.10923, -45.013013, 242.5], [169.104085, -45.011683, 242.2], [169.099046, -45.010308, 244.2], [169.09353, -45.010183, 246.7], [169.088014, -45.010156, 245.9], [169.082497, -45.009907, 251.0], [169.076981, -45.009752, 252.4], [169.071465, -45.009684, 249.1], [169.065949, -45.009573, 253.1], [169.060432, -45.009554, 251.2], [169.054916, -45.009705, 255.5], [169.0494, -45.009934, 258.5], [169.043883, -45.010141, 260.2], [169.038367, -45.010179, 259.6], [169.032851, -45.010264, 259.0], [169.027334, -45.010487, 264.3], [169.021818, -45.010341, 260.6], [169.016302, -45.010125, 267.2], [169.010786, -45.010159, 266.3], [169.005269, -45.009775, 269.8], [168.999753, -45.009689, 271.4], [168.994237, -45.009652, 271.4], [168.98872, -45.009652, 270.6], [168.983204, -45.009546, 270.5], [168.977688, -45.009701, 275.8], [168.972171, -45.009898, 277.5], [168.966655, -45.01006, 278.0], [168.961139, -45.010171, 280.7], [168.955623, -45.010418, 279.1], [168.950106, -45.010514, 277.7], [168.94459, -45.010343, 283.7], [168.939074, -45.010209, 284.6], [168.933557, -45.010197, 283.7], [168.928047, -45.00988, 282.8], [168.922558, -45.009326, 289.9], [168.917059, -45.008992, 287.4], [168.911553, -45.008783, 289.2], [168.906052, -45.008481, 291.9], [168.900551, -45.008171, 292.9], [168.895032, -45.008223, 294.8], [168.889529, -45.007952, 292.8], [168.884011, -45.007989, 297.0], [168.878503, -45.007836, 296.4], [168.873005, -45.007456, 295.8], [168.867502, -45.007198, 299.3], [168.862005, -45.006812, 299.2], [168.856511, -45.006363, 302.4], [168.851013, -45.006001, 303.5], [168.845525, -45.005435, 304.5], [168.840027, -45.005057, 307.3], [168.834525, -45.004785, 307.3], [168.828955, -45.004745, 308.6], [168.823594, -45.005687, 313.0], [168.818282, -45.006925, 314.8], [168.812929, -45.007914, 311.2], [168.807579, -45.008927, 312.4], [168.802228, -45.009925, 315.8], [168.796859, -45.01082, 316.8], [168.791501, -45.011781, 318.4], [168.786103, -45.012502, 318.3], [168.780716, -45.013291, 321.9], [168.775332, -45.014096, 320.6], [168.769916, -45.01471, 322.6], [168.76456, -45.015678, 324.0], [168.759167, -45.016433, 328.2], [168.753789, -45.017273, 326.7], [168.748454, -45.01837, 331.1], [168.743115, -45.019446, 328.1], [168.737732, -45.020302, 334.3], [168.732342, -45.021204, 331.8], [168.726977, -45.022278, 337.1], [168.721554, -45.022949, 336.7], [168.71615, -45.023751, 337.3], [168.71072, -45.024372, 337.4], [168.70531, -45.025131, 338.9], [168.699853, -45.025555, 341.2], [168.694435, -45.026263, 342.4], [168.68901, -45.026914, 343.7], [168.683599, -45.027668, 344.5], [168.678182, -45.028376, 345.7], [168.672769, -45.029117, 348.5], [168.667396, -45.030143, 350.5], [168.661997, -45.030978, 350.0]]}, "properties": {"kind": "track", "name": "Cromwell \u2192 Queenstown", "day": 5, "mode": "drive", "times": ["2026-03-06T11:10:00+13:00", "2026-03-06T11:10:33.333333+13:00", "2026-03-06T11:11:06.666667+13:00", "2026-03-06T11:11:40+13:00", "2026-03-06T11:12:13.333333+13:00", "2026-03-06T11:12:46.666667+13:00", "2026-03-06T11:13:20+13:00", "2026-03-06T11:13:53.333333+13:00", "2026-03-06T11:14:26.666667+13:00", "2026-03-06T11:15:00+13:00", "2026-03-06T11:15:33.333333+13:00", "2026-03-06T11:16:06.666667+13:00", "2026-03-06T11:16:40+13:00", "2026-03-06T11:17:13.333333+13:00", "2026-03-06T11:17:46.666667+13:00", "2026-03-06T11:18:20+13:00", "2026-03-06T11:18:53.333333+13:00", "2026-03-06T11:19:26.666667+13:00", "2026-03-06T11:20:00+13:00", "2026-03-06T11:20:33.333333+13:00", "2026-03-06T11:21:06.666667+13:00", "2026-03-06T11:21:40+13:00", "2026-03-06T11:22:13.333333+13:00", "2026-03-06T11:22:46.666667+13:00", "2026-03-06T11:23:20+13:00", "2026-03-06T11:23:53.333333+13:00", "2026-03-06T11:24:26.666667+13:00", "2026-03-06T11:25:00+13:00", "2026-03-06T11:25:33.333333+13:00", "2026-03-06T11:26:06.666667+13:00", "2026-03-06T11:26:40+13:00", "2026-03-06T11:27:13.333333+13:00", "2026-03-06T11:27:46.666667+13:00", "2026-03-06T11:28:20+13:00", "2026-03-06T11:28:53.333333+13:00", "2026-03-06T11:29:26.666667+13:00", "2026-03-06T11:30:00+13:00", "2026-03-06T11:30:33.333333+13:00", "2026-03-06T11:31:06.666667+13:00", "2026-03-06T11:31:40+13:00", "2026-03-06T11:32:13.333333+13:00", "2026-03-06T11:32:46.666667+13:00", "2026-03-06T11:33:20+13:00", "2026-03-06T11:33:53.333333+13:00", "2026-03-06T11:34:26.666667+13:00", "2026-03-06T11:35:00+13:00", "2026-03-06T11:35:33.333333+13:00", "2026-03-06T11:36:06.666667+13:00", "2026-03-06T11:36:40+13:00", "2026-03-06T11:37:13.333333+13:00", "2026-03-06T11:37:46.666667+13:00", "2026-03-06T11:38:20+13:00", "2026-03-06T11:38:53.333333+13:00", "2026-03-06T11:39:26.666667+13:00", "2026-03-06T11:40:00+13:00", "2026-03-06T11:40:33.333333+13:00", "2026-03-06T11:41:06.666667+13:00", "2026-03-06T11:41:40+13:00", "2026-03-06T11:42:13.333333+13:00", "2026-03-06T11:42:46.666667+13:00", "2026-03-06T11:43:20+13:00", "2026-03-06T11:43:53.333333+13:00", "2026-03-06T11:44:26.666667+13:00", "2026-03-06T11:45:00+13:00", "2026-03-06T11:45:33.333333+13:00", "2026-03-06T11:46:06.666667+13:00", "2026-03-06T11:46:40+13:00", "2026-03-06T11:47:13.333333+13:00", "2026-03-06T11:47:46.666667+13:00", "2026-03-06T11:48:20+13:00", "2026-03-06T11:48:53.333333+13:00", "2026-03-06T11:49:26.666667+13:00", "2026-03-06T11:50:00+13:00", "2026-03-06T11:50:33.333333+13:00", "2026-03-06T11:51:06.666667+13:00", "2026-03-06T11:51:40+13:00", "2026-03-06T11:52:13.333333+13:00", "2026-03-06T11:52:46.666667+13:00", "2026-03-06T11:53:20+13:00", "2026-03-06T11:53:53.333333+13:00", "2026-03-06T11:54:26.666667+13:00", "2026-03-06T11:55:00+13:00", "2026-03-06T11:55:33.333333+13:00", "2026-03-06T11:56:06.666667+13:00", "2026-03-06T11:56:40+13:00", "2026-03-06T11:57:13.333333+13:00", "2026-03-06T11:57:46.666667+13:00", "2026-03-06T11:58:20+13:00", "2026-03-06T11:58:53.333333+13:00", "2026-03-06T11:59:26.666667+13:00", "2026-03-06T12:00:00+13:00", "2026-03-06T12:00:33.333333+13:00", "2026-03-06T12:01:06.666667+13:00", "2026-03-06T12:01:40+13:00", "2026-03-06T12:02:13.333333+13:00", "2026-03-06T12:02:46.666667+13:00", "2026-03-06T12:03:20+13:00", "2026-03-06T12:03:53.333333+13:00", "2026-03-06T12:04:26.666667+13:00", "2026-03-06T12:05:00+13:00"]}}, {"type": "Feature", "geometry": {"type": "Point", "coordinates": [168.662, -45.031]}, "properties": {"kind": "waypoint", "name": "Queenstown hotel", "icon": "lodging"}}, {"type": "Feature", "geometry": {"type": "Point", "coordinates": [168.3925, -44.8375]}, "properties": {"kind": "waypoint", "name": "Glenorchy Lagoon lookout", "icon": "viewpoint"}}, {"type": "Feature", "geometry": {"type": "Point", "coordinates": [168.95, -44.93]}, "properties": {"kind": "waypoint", "name": "Crown Range summit", "icon": "viewpoint"}}, {"type": "Feature", "geometry": {"type": "Point", "coordinates": [169.01, -44.87]}, "properties": {"kind": "waypoint", "name": "Cardrona Hotel", "icon": "food"}}, {"type": "Feature", "geometry": {"type": "Point", "coordinates": [169.118, -44.698]}, "properties": {"kind": "waypoint", "name": "That Wanaka Tree", "icon": "viewpoint"}}, {"type": "Feature", "geometry": {"type": "Point", "coordinates": [169.048, -44.681]}, "properties": {"kind": "waypoint", "name": "Roys Peak summit", "icon": "viewpoint"}}, {"type": "Feature", "geometry": {"type": "Point", "coordinates": [169.19, -45.015]}, "properties": {"kind": "waypoint", "name": "Cromwell fruit stall", "icon": "food"}}]}