<?xml version="1.0" encoding="UTF-8"?>
<gpx xmlns="http://www.topografix.com/GPX/1/1"
     xmlns:osmand="https://osmand.net/docs/technical/osmand-file-formats/osmand-gpx"
     version="1.1" creator="OsmAnd">
  <metadata>
    <name>2024-03-15_10-00_Fri</name>
    <extensions>
      <osmand:activity>walking</osmand:activity>
    </extensions>
  </metadata>
  <trk>
    <name>City Walk</name>
    <trkseg>
      <trkpt lat="35.6895" lon="139.6917">
        <time>2024-03-15T10:00:00Z</time>
      </trkpt>
      <trkpt lat="35.6900" lon="139.6925">
        <time>2024-03-15T10:15:00Z</time>
      </trkpt>
      <trkpt lat="35.6910" lon="139.6940">
        <time>2024-03-15T10:30:00Z</time>
      </trkpt>
    </trkseg>
  </trk>
</gpx>
